NAME,BOARD,TYPE,NAME_AB,ADDRESS_AB,CITY,PROVINCE,GRADES,POSTSECOND,DATA_SOURCE,PROVINCIAL_CODE_NUM,ECS,ELEM,JUNIOR_H,SENIOR_H,PROCESS_DT,POSTAL_COD,STRUCTURE_ID,longitude,latitude,location
Midnapore,Calgary School District No. 19,Public School,Midnapore School,55 Midpark Rise SE,Calgary,AB,GRK-6,N,CBE Data,9363,Y,Y,N,N,2019/03/03,T2X1L7,1382577,-114.055174702314,50.9150402074022,"(50.9150402074022, -114.055174702314)"
Scenic Acres,Calgary School District No. 19,Public School,Scenic Acres School,50 Scurfield Way NW,Calgary,AB,GRK-4,N,CBE Data,597,Y,Y,N,N,2019/03/03,T3L1T2,1384107,-114.215656566624,51.1200890863443,"(51.1200890863443, -114.215656566624)"
Light of Christ,Calgary Roman Catholic Separate School District No. 1,Separate School,Light of Christ Catholic School,6270 Saddlehorn Dr NE,Calgary,AB,Elementary / Junior High,N,CSSD Data,1486,N,Y,Y,N,2019/03/03,T3J0L8,1383296,-113.94127347852,51.1295372345183,"(51.1295372345183, -113.94127347852)"
Rundle,Calgary School District No. 19,Public School,Rundle School,4120 Rundlehorn Drive NE,Calgary,AB,GRK-6,N,CBE Data,9358,Y,Y,N,N,2019/03/03,T1Y4W9,1381142,-113.973721740547,51.0711823153387,"(51.0711823153387, -113.973721740547)"
St. Albert the Great,Calgary Roman Catholic Separate School District No. 1,Separate School,St. Albert the Great,225 Prestwick Ave SE,Calgary,AB,Elementary / Junior High,N,CSSD Data,1336,N,Y,Y,N,2019/03/03,T2Z3X3,1382579,-113.960075849988,50.921509651829,"(50.921509651829, -113.960075849988)"
James Fowler High,Calgary School District No. 19,Public School,James Fowler High School,4004 4 Street NW,Calgary,AB,GR10-12,N,CBE Data,9825,N,N,N,Y,2019/03/03,T2K1A1,1383037,-114.070516303064,51.086532146809,"(51.086532146809, -114.070516303064)"
Deer Run,Calgary School District No. 19,Public School,Deer Run School,2127 146 Avenue SE,Calgary,AB,GRK-6,N,CBE Data,9265,Y,Y,N,N,2019/03/03,T2J6P8,1369586,-114.009454543388,50.9215554277433,"(50.9215554277433, -114.009454543388)"
Annie Foote,Calgary School District No. 19,Public School,Annie Foote School,6320 Temple Drive NE,Calgary,AB,GRK-6,N,CBE Data,9377,Y,Y,N,N,2019/03/03,T1Y5V5,1383036,-113.940330271319,51.085988623729,"(51.085988623729, -113.940330271319)"
St. Mary's High,Calgary Roman Catholic Separate School District No. 1,Separate School,St. Mary's High School,111 18 Ave SW,Calgary,AB,Senior High,N,CSSD Data,8904,N,N,N,Y,2019/03/03,,1382530,-114.064017571661,51.0366143229253,"(51.0366143229253, -114.064017571661)"
Tyndale Christian,The Canadian Reformed School Society of Calgary,Private School,Tyndale Christian School,28 Hart Estates Blvd. NE,Calgary,AB,Elementary/Junior High/Senior High,N,Provincial Data,9984,N,Y,Y,Y,2019/03/03,T1X0L3,1370057,-113.8677456947,51.058633929554,"(51.058633929554, -113.8677456947)"
Northeast Elementary Campus,Foundations for the Future Charter Academy Charter School Society,Charter,Northeast Elementary Campus,1140 Mayland Drive NE,Calgary,AB,Elementary,N,Provincial Data,1349,N,Y,N,N,2019/03/03,T2E6C8,1380950,-114.011276764304,51.0641873412351,"(51.0641873412351, -114.011276764304)"
Georges P. Vanier,Calgary School District No. 19,Public School,Georges P. Vanier School,509 32 Avenue NE,Calgary,AB,GR7-9,N,CBE Data,9635,N,N,Y,N,2019/03/03,T2E2H3,1382291,-114.052069123477,51.0806053130658,"(51.0806053130658, -114.052069123477)"
Cappy Smart,Calgary School District No. 19,Public School,Cappy Smart School,5808 Madigan Drive NE,Calgary,AB,GRK-5,N,CBE Data,9353,Y,Y,N,N,2019/03/03,T2A4P5,1382334,-113.945067748103,51.0636930806335,"(51.0636930806335, -113.945067748103)"
Ron Southern,Calgary School District No. 19,Public School,Ron Southern School,483 Silverado Boulevard SW,Calgary,AB,GRK-6,N,CBE Data,2146,Y,Y,N,N,2019/03/03,T2X2E2,2393067,-114.085688232958,50.8809318203295,"(50.8809318203295, -114.085688232958)"
Horizon Heritage Arabic,Horizon Academy Institute,Private School,Horizon Heritage Arabic School,Unit P55 1610 - 37 St. SW PO Box 34028 Westbrook,Calgary,AB,Unknown,N,Provincial Data,1913,N,N,N,N,2019/03/03,T3C3P1,1376393,-114.139814428391,51.0396737069362,"(51.0396737069362, -114.139814428391)"
William Roper Hull,Calgary School District No. 19,Public School,William Roper Hull School,2266 Woodpark Avenue SW,Calgary,AB,SPECIALTY,N,CBE Data,9033,N,N,N,N,2019/03/03,T2W2Z8,1382587,-114.113832452867,50.9483626457444,"(50.9483626457444, -114.113832452867)"
St. Dominic,Calgary Roman Catholic Separate School District No. 1,Separate School,St. Dominic School,4820 Dalhart Rd NW,Calgary,AB,Elementary,N,CSSD Data,8531,N,Y,N,N,2019/03/03,T3A1C2,1383508,-114.154244056349,51.1095587514848,"(51.1095587514848, -114.154244056349)"
Guardian Angel,Calgary Roman Catholic Separate School District No. 1,Separate School,Guardian Angel School,20 Aspen Hills Drive SW,Calgary,AB,Elementary,N,CSSD Data,2156,N,Y,N,N,2019/03/03,T3H0G5,2392869,-114.216465383521,51.040628728342,"(51.040628728342, -114.216465383521)"
Bishop Carroll High,Calgary Roman Catholic Separate School District No. 1,Separate School,Bishop Carroll High School,4624 Richard Rd SW,Calgary,AB,Senior High,N,CSSD Data,8905,N,N,N,Y,2019/03/03,T3E6L1,1382203,-114.120786292015,51.0126951857398,"(51.0126951857398, -114.120786292015)"
Abbeydale,Calgary School District No. 19,Public School,Abbeydale School,320 Abergale Drive NE,Calgary,AB,GRK-5,N,CBE Data,9376,Y,Y,N,N,2019/03/03,T2A6W2,1382217,-113.929848567186,51.0566251951646,"(51.0566251951646, -113.929848567186)"
Mount Royal University - Lincoln Park Campus,,Post Secondary,,,Calgary,AB,,Y,Post Secondary Data,,N,N,N,N,2019/03/03,T3E6K6,1537443,-114.132720343453,51.0128049608186,"(51.0128049608186, -114.132720343453)"
Calgary Christian,Palliser Regional Division No. 26,Public School,Calgary Christian School,2839 - 49 Street S.W.,Calgary,AB,Elementary,N,Provincial Data,9903,N,Y,N,N,2019/03/03,T3E3X9,1382507,-114.158950635536,51.0274677454858,"(51.0274677454858, -114.158950635536)"
New Brighton,Calgary School District No. 19,Public School,New Brighton School,30 New Brighton Drive SE,Calgary,AB,GRK-4,N,CBE Data,2072,Y,Y,N,N,2019/03/03,T2Z4B2,2390336,-113.953707839925,50.9194771743183,"(50.9194771743183, -113.953707839925)"
New Heights School and Learning Services,New Heights School and Learning Services Society,Private School,New Heights School and Learning Services,4041 Breskins Drive SW,Calgary,AB,Elementary/Junior High/Senior High,N,Provincial Data,432,N,Y,Y,Y,2019/03/03,T3E7M1,1378965,-114.122170213833,51.018474443176,"(51.018474443176, -114.122170213833)"
Monsignor J.S. Smith,Calgary Roman Catholic Separate School District No. 1,Separate School,Monsignor J. S. Smith School,2919 Douglasdale Blvd SE,Calgary,AB,Elementary / Junior High,N,CSSD Data,313,N,Y,Y,N,2019/03/03,T2Z2H9,1382570,-113.989863858949,50.941211680497,"(50.941211680497, -113.989863858949)"
West Ridge,Calgary School District No. 19,Public School,West Ridge School,8903 Wentworth Avenue SW,Calgary,AB,GR5-9,N,CBE Data,2087,N,Y,Y,N,2019/03/03,T3H5N9,2384637,-114.214242361605,51.0584892242268,"(51.0584892242268, -114.214242361605)"
Sunnyside,Calgary School District No. 19,Public School,Sunnyside School,211 7 Street NW,Calgary,AB,GRK-6,N,CBE Data,9234,Y,Y,N,N,2019/03/03,T2N1S2,1381198,-114.079544055453,51.0565623756895,"(51.0565623756895, -114.079544055453)"
Dr. J.K. Mulloy,Calgary School District No. 19,Public School,Dr. J. K. Mulloy School,7440 10 Street NW,Calgary,AB,GRK-4,N,CBE Data,9242,Y,Y,N,N,2019/03/03,T2K1H6,1384106,-114.079968988911,51.1192250672658,"(51.1192250672658, -114.079968988911)"
St. Bede,Calgary Roman Catholic Separate School District No. 1,Separate School,St. Bede Elementary School,333 Bermuda Dr NW,Calgary,AB,Elementary,N,CSSD Data,8545,N,Y,N,N,2019/03/03,T3K2J5,1370600,-114.082846020853,51.1316737402892,"(51.1316737402892, -114.082846020853)"
Woodlands,Calgary School District No. 19,Public School,Woodlands School,88 Woodgreen Drive SW,Calgary,AB,GRK-6,N,CBE Data,9371,Y,Y,N,N,2019/03/03,T2W4W9,1382584,-114.1069696177,50.9389351925832,"(50.9389351925832, -114.1069696177)"
MAC Islamic School - Calgary Chapter,Muslim Association of Canada,Private School,MAC Islamic School - Calgary Chapter,6415 Ranchview Drive N.W.,Calgary,AB,Elementary,N,Provincial Data,2178,N,Y,N,N,2019/03/03,T3G1B5,1378667,-114.179939355571,51.1148235593017,"(51.1148235593017, -114.179939355571)"
Louise Dean (Kensington),Calgary School District No. 19,Public School,Louise Dean School,120 23 Street NW,Calgary,AB,GR10-12,N,CBE Data,9626,N,N,N,Y,2019/03/03,T2N2P1,1382214,-114.114682472565,51.0531507142995,"(51.0531507142995, -114.114682472565)"
Father Scollen,Calgary Roman Catholic Separate School District No. 1,Separate School,Father Scollen School,6839 Temple Dr NE,Calgary,AB,Elementary / Junior High,N,CSSD Data,8730,N,Y,Y,N,2019/03/03,T1Y5N4,1384090,-113.941961581758,51.0930202653202,"(51.0930202653202, -113.941961581758)"
Yufeng Chinese,Yufeng Chinese School Centre,Private School,Yufeng Chinese School,169 Citadel Ridge Close NW,Calgary,AB,Elementary,N,Provincial Data,1048,N,Y,N,N,2019/03/03,T3G4V5,1094950,-114.183469236192,51.1460943461828,"(51.1460943461828, -114.183469236192)"
Highwood,Calgary School District No. 19,Public School,Highwood School,11 Holmwood Avenue NW,Calgary,AB,GRK-4,N,CBE Data,9217,Y,Y,N,N,2019/03/03,T2K2G5,1383129,-114.076532836291,51.0922435665459,"(51.0922435665459, -114.076532836291)"
Western Canada High,Calgary School District No. 19,Public School,Western Canada High School,641 17 Avenue SW,Calgary,AB,GR10-12,N,CBE Data,9816,N,N,N,Y,2019/03/03,T2S0B5,1382531,-114.077547569158,51.03699475356,"(51.03699475356, -114.077547569158)"
University of Calgary,,Post Secondary,,,Calgary,AB,,Y,Post Secondary Data,,N,N,N,N,2019/03/03,,1383018,-114.13012547931,51.0754066743341,"(51.0754066743341, -114.13012547931)"
"Calgary Islamic School, Akram Jomaa Campus",Palliser Regional Division No. 26,Public School,"Calgary Islamic School, Akram Jomaa Campus",2612 - 37 Avenue N.E.,Calgary,AB,Elementary/Junior High/Senior High,N,Provincial Data,9969,N,Y,Y,Y,2019/03/03,T1Y5L2,1005821,-114.000477365889,51.0875898704508,"(51.0875898704508, -114.000477365889)"
St. Cyril,Calgary Roman Catholic Separate School District No. 1,Separate School,St. Cyril School,2990 Cedarbrae Dr SW,Calgary,AB,Elementary / Junior High,N,CSSD Data,8723,N,Y,Y,N,2019/03/03,T2W2N9,1382812,-114.128551180482,50.9554892860441,"(50.9554892860441, -114.128551180482)"
Alexander Ferguson,Calgary School District No. 19,Public School,Alex Ferguson School,1704 26 Street SW,Calgary,AB,GRK-6,N,CBE Data,9101,Y,Y,N,N,2019/03/03,T3C1K5,1382818,-114.122983600813,51.0393637674236,"(51.0393637674236, -114.122983600813)"
Horizon Leadership Academy,Palliser Regional Division No. 26,Public School,Horizon Leadership Academy,Building B4 Battleford Ave. SW,Calgary,AB,Elementary/Junior High,N,Provincial Data,2164,N,Y,Y,N,2019/03/03,,1378961,-114.119046696887,51.0176443810718,"(51.0176443810718, -114.119046696887)"
St. Jerome,Calgary Roman Catholic Separate School District No. 1,Separate School,St. Jerome Elementary School,11616 Panorama Hills Blvd NW,Calgary,AB,Elementary,N,CSSD Data,1340,N,Y,N,N,2019/03/03,T3K5S3,1413750,-114.07928272234,51.1577111565043,"(51.1577111565043, -114.07928272234)"
Prince Of Wales,Calgary School District No. 19,Public School,Prince of Wales School,253 Parkland Way SE,Calgary,AB,GRK-6,N,CBE Data,9341,Y,Y,N,N,2019/03/03,T2J3Y9,1382259,-114.033308007977,50.9247641766859,"(50.9247641766859, -114.033308007977)"
Calgary Chinese Alliance,Calgary Chinese Alliance School Society,Private School,Calgary Chinese Alliance School,150 Beddington Blvd. NE,Calgary,AB,Senior High,N,Provincial Data,5001,N,N,N,Y,2019/03/03,T3K2E2,1400877,-114.067625491307,51.1257326378669,"(51.1257326378669, -114.067625491307)"
Notre Dame High,Calgary Roman Catholic Separate School District No. 1,Separate School,Notre Dame High School,11900 Country Village Link NE,Calgary,AB,Senior High,N,CSSD Data,1275,N,N,N,Y,2019/03/03,T3K6E4,1383527,-114.065834039729,51.1576594092804,"(51.1576594092804, -114.065834039729)"
St. Henry,Calgary Roman Catholic Separate School District No. 1,Separate School,St. Henry Elementary School,7423 10 St NW,Calgary,AB,Elementary,N,CSSD Data,8534,N,Y,N,N,2019/03/03,T2K1H5,1384103,-114.080177781279,51.1175975215355,"(51.1175975215355, -114.080177781279)"
St. Mark,Calgary Roman Catholic Separate School District No. 1,Separate School,St. Mark Elementary School,4589 Marbank Dr NE,Calgary,AB,Elementary,N,CSSD Data,8536,N,Y,N,N,2019/03/03,T2A3V8,1381390,-113.969348975802,51.0630457539896,"(51.0630457539896, -113.969348975802)"
The School of Alberta Ballet,The Alberta Ballet Company,Private School,The School of Alberta Ballet,"West Annex, 2nd Floor 906-12 Avenue S.W.",Calgary,AB,Junior High/Senior High,N,Provincial Data,1598,N,N,Y,Y,2019/03/03,T2R1K7,1414534,-114.082057984612,51.0422510032592,"(51.0422510032592, -114.082057984612)"
St. Gerard,Calgary Roman Catholic Separate School District No. 1,Separate School,St. Gerard Bilingual School,1204 96 Ave SW,Calgary,AB,Elementary,N,CSSD Data,8517,N,Y,N,N,2019/03/03,T2V0Y1,1382275,-114.088479110625,50.9688700315733,"(50.9688700315733, -114.088479110625)"
Harold Panabaker,Calgary School District No. 19,Public School,Harold Panabaker School,23 Sackville Drive SW,Calgary,AB,GR5-9,N,CBE Data,9643,N,Y,Y,N,2019/03/03,T2W0W3,1593042,-114.086648191958,50.9576395918952,"(50.9576395918952, -114.086648191958)"
Ethel M. Johnson,Calgary School District No. 19,Public School,Ethel M. Johnson School,255 Sackville Drive SW,Calgary,AB,GRK-6,N,CBE Data,9310,Y,Y,N,N,2019/03/03,T2W0W7,1382813,-114.089038911225,50.9554733852036,"(50.9554733852036, -114.089038911225)"
St. Catherine,Calgary Roman Catholic Separate School District No. 1,Separate School,St. Catherine Elementary School,11 Canata Close SW,Calgary,AB,Elementary,N,CSSD Data,8533,N,Y,N,N,2019/03/03,T2W1P6,1382572,-114.08648256962,50.9438817380879,"(50.9438817380879, -114.08648256962)"
"Calgary Islamic School, Omar Bin Al-Khattab Campus",Palliser Regional Division No. 26,Public School,"Calgary Islamic School, Omar Bin Al-Khattab Campus",Omar Bin Al-Khattab Campus 225 28 Street SE,Calgary,AB,Elementary/Junior High,N,Provincial Data,1722,N,Y,Y,N,2019/03/03,T2A5K4,1376120,-113.993809769953,51.0507450351951,"(51.0507450351951, -113.993809769953)"
Battalion Park,Calgary School District No. 19,Public School,Battalion Park School,369 Sienna Park Drive SW,Calgary,AB,GRK-6,N,CBE Data,537,Y,Y,N,N,2019/03/03,T3H4S2,1382205,-114.181901039074,51.0235669067637,"(51.0235669067637, -114.181901039074)"
Captain John Palliser,Calgary School District No. 19,Public School,Captain John Palliser School,1484 Northmount Drive NW,Calgary,AB,GRK-6,N,CBE Data,9210,Y,Y,N,N,2019/03/03,T2L0G6,1000998,-114.136016108201,51.0963648543441,"(51.0963648543441, -114.136016108201)"
Woodbine,Calgary School District No. 19,Public School,Woodbine School,27 Woodfield Way SW,Calgary,AB,GRPRE-K-6,N,CBE Data,9266,Y,Y,N,N,2019/03/03,T2W5E1,1370184,-114.128942645002,50.9365328874585,"(50.9365328874585, -114.128942645002)"
Heritage Christian Academy,Palliser Regional Division No. 26,Public School,Heritage Christian Academy,2003 McKnight Boulevard N.E.,Calgary,AB,Elementary/Junior High/Senior High,N,Provincial Data,9906,N,Y,Y,Y,2019/03/03,T2E6L2,1384058,-114.010136401938,51.0921352242676,"(51.0921352242676, -114.010136401938)"
Ascension of Our Lord,Calgary Roman Catholic Separate School District No. 1,Separate School,Ascension of Our Lord,509 Harvest Hills Dr NE,Calgary,AB,Elementary / Junior High,N,CSSD Data,333,N,Y,Y,N,2019/03/03,T3K4G9,1383730,-114.059690457421,51.1469579614294,"(51.1469579614294, -114.059690457421)"
Marshall Springs,Calgary School District No. 19,Public School,Marshall Springs School,1100 Everridge Drive SW,Calgary,AB,GR4-9,N,CBE Data,2069,N,Y,Y,N,2019/03/03,T2Y4X5,2370193,-114.11230037386,50.9114448380447,"(50.9114448380447, -114.11230037386)"
Rundle College Academy,Rundle College Society,Private School,Rundle College Academy,4330 - 16 Street S.W.,Calgary,AB,Elementary/Junior High/Senior High,N,Provincial Data,5297,N,Y,Y,Y,2019/03/03,T2T4H9,1382282,-114.099772542232,51.0152966174285,"(51.0152966174285, -114.099772542232)"
Lord Beaverbrook High,Calgary School District No. 19,Public School,Lord Beaverbrook High School,9019 Fairmount Drive SE,Calgary,AB,GR10-12,N,CBE Data,9850,N,N,N,Y,2019/03/03,T2H0Z4,1413860,-114.061639559011,50.9730998198691,"(50.9730998198691, -114.061639559011)"
Rideau Park,Calgary School District No. 19,Public School,Rideau Park School,829 Rideau Road SW,Calgary,AB,GRK-9,N,CBE Data,9610,Y,Y,Y,N,2019/03/03,T2S0S2,1382504,-114.075563741508,51.0252766218485,"(51.0252766218485, -114.075563741508)"
Beddington Heights,Calgary School District No. 19,Public School,Beddington Heights School,95 Bermuda Road NW,Calgary,AB,GRK-6,N,CBE Data,9372,Y,Y,N,N,2019/03/03,T3K2J6,1383517,-114.079392914706,51.1317456312123,"(51.1317456312123, -114.079392914706)"
Guy Weadick,Calgary School District No. 19,Public School,Guy Weadick School,5612 Templehill Road NE,Calgary,AB,GRK-6,N,CBE Data,9343,Y,Y,N,N,2019/03/03,T1Y4W7,1383120,-113.95297486813,51.0869883378757,"(51.0869883378757, -113.95297486813)"
John W. Costello Catholic,Calgary Roman Catholic Separate School District No. 1,Separate School,John Costello Catholic School,300 Strathcona Dr SW,Calgary,AB,Elementary,N,CSSD Data,8558,N,Y,N,N,2019/03/03,T3H1N9,1382929,-114.180707479034,51.048832562457,"(51.048832562457, -114.180707479034)"
St. Hubert,Calgary Roman Catholic Separate School District No. 1,Separate School,St. Hubert Elementary School,320 72 Ave NE,Calgary,AB,Elementary,N,CSSD Data,8502,N,Y,N,N,2019/03/03,T2K5J3,1384104,-114.062213277402,51.118375903135,"(51.118375903135, -114.062213277402)"
Branton,Calgary School District No. 19,Public School,Branton School,2103 20 Street NW,Calgary,AB,GR7-9,N,CBE Data,9621,N,N,Y,N,2019/03/03,T2M3W1,1381141,-114.109030474996,51.0712469127282,"(51.0712469127282, -114.109030474996)"
Senator Patrick Burns,Calgary School District No. 19,Public School,Senator Patrick Burns School,2155 Chilcotin Road NW,Calgary,AB,GR6-9,N,CBE Data,9640,N,Y,Y,N,2019/03/03,T2L0X2,1383123,-114.115536700167,51.0882110963101,"(51.0882110963101, -114.115536700167)"
Rosemont,Calgary School District No. 19,Public School,Rosemont School,19 Rosevale Drive NW,Calgary,AB,GRK-6,N,CBE Data,9231,Y,Y,N,N,2019/03/03,T2K1N6,1000924,-114.092373301647,51.0778712146491,"(51.0778712146491, -114.092373301647)"
Lycee Louis Pasteur,Lycee Louis Pasteur Society,Private School,Lycee Louis Pasteur,4099 Garrison Blvd. S.W.,Calgary,AB,Elementary/Junior High/Senior High,N,Provincial Data,9919,N,Y,Y,Y,2019/03/03,T2T6G2,1001606,-114.114483127728,51.0176427705333,"(51.0176427705333, -114.114483127728)"
Lord Beaverbrook High,Calgary School District No. 19,Public School,CLS Lord Beaverbrook Writing Centre,9019 Fairmount Drive SE,Calgary,AB,GR10-12,N,CBE Data,2245,N,N,N,Y,2019/03/03,T2H0Z4,1413860,-114.061639559011,50.9730998198691,"(50.9730998198691, -114.061639559011)"
St. Jude,Calgary Roman Catholic Separate School District No. 1,Separate School,St. Jude School,730 Woodbine Blvd SW,Calgary,AB,Elementary,N,CSSD Data,8546,N,Y,N,N,2019/03/03,T2W4W4,1382571,-114.133437431785,50.9429522377689,"(50.9429522377689, -114.133437431785)"
Douglasdale,Calgary School District No. 19,Public School,Douglasdale School,400 Douglas Park Boulevard SE,Calgary,AB,GRK-6,N,CBE Data,596,Y,Y,N,N,2019/03/03,T2Z4A3,1382583,-113.982648780496,50.9352629935937,"(50.9352629935937, -113.982648780496)"
Elboya,Calgary School District No. 19,Public School,Elboya School,4804 6 Street SW,Calgary,AB,GRK-9,N,CBE Data,9627,Y,Y,Y,N,2019/03/03,T2S2N3,1376697,-114.078213703181,51.0108833841301,"(51.0108833841301, -114.078213703181)"
St. Rita,Calgary Roman Catholic Separate School District No. 1,Separate School,St. Rita School,7811 Ranchview Dr NW,Calgary,AB,Elementary,N,CSSD Data,8547,N,Y,N,N,2019/03/03,T3G2B3,1383514,-114.181753057774,51.1198661655931,"(51.1198661655931, -114.181753057774)"
Mountain Park,Calgary School District No. 19,Public School,Mountain Park School,312 Mount Douglas Close SE,Calgary,AB,GR5-9,N,CBE Data,1333,N,Y,Y,N,2019/03/03,T2Z4Y1,1382580,-113.981879878875,50.923798322386,"(50.923798322386, -113.981879878875)"
St. Wilfrid,Calgary Roman Catholic Separate School District No. 1,Separate School,St. Wilfrid Elementary School,4225 44 Ave NE,Calgary,AB,Elementary,N,CSSD Data,8541,N,Y,N,N,2019/03/03,T1Y4Y1,1383127,-113.968994264309,51.0919265388399,"(51.0919265388399, -113.968994264309)"
Henry Wise Wood High,Calgary School District No. 19,Public School,Henry Wise Wood High School,910 75 Avenue SW,Calgary,AB,GR10-12,N,CBE Data,9836,N,N,N,Y,2019/03/03,T2V0S6,1382192,-114.08468438422,50.9863406298737,"(50.9863406298737, -114.08468438422)"
North Middle School Campus,Foundations for the Future Charter Academy Charter School Society,Charter,North Middle School Campus,211 McKnight Blvd. NE,Calgary,AB,Elementary/Junior High,N,Provincial Data,1426,N,Y,Y,N,2019/03/03,T2E5S7,1384092,-114.060600959369,51.0954530507553,"(51.0954530507553, -114.060600959369)"
Father Lacombe High,Calgary Roman Catholic Separate School District No. 1,Separate School,Father Lacombe School,3615 Radcliffe Dr SE,Calgary,AB,Senior High,N,CSSD Data,8903,N,N,N,Y,2019/03/03,T2A6B4,1559297,-113.983246409989,51.0473973156667,"(51.0473973156667, -113.983246409989)"
Bowness High,Calgary School District No. 19,Public School,Bowness High School,4627 77 Street NW,Calgary,AB,GR10-12,N,CBE Data,9847,N,N,N,Y,2019/03/03,T3B2N6,1382936,-114.200251003503,51.0931752598702,"(51.0931752598702, -114.200251003503)"
Italian School of Calgary,Centro Linguistico E Culturale Italiano Calgary,Private School,Italian School of Calgary,416-1 Avenue N.E.,Calgary,AB,Junior High/Senior High,N,Provincial Data,9926,N,N,Y,Y,2019/03/03,T2E0B4,1397336,-114.05314715223,51.0537463029556,"(51.0537463029556, -114.05314715223)"
Rosedale,Calgary School District No. 19,Public School,Rosedale School,905 13 Avenue NW,Calgary,AB,GRK-9,N,CBE Data,9618,Y,Y,Y,N,2019/03/03,T2M0G3,1382331,-114.081529656834,51.0635972770479,"(51.0635972770479, -114.081529656834)"
Glenmore Christian Academy Junior High,GCA Educational Society,Private School,Glenmore Christian Academy Junior High,16520-24 Street SW,Calgary,AB,Elementary/Junior High,N,Provincial Data,1956,N,Y,Y,N,2019/03/03,T2Y4W2,1590356,-114.115253708078,50.9039795061973,"(50.9039795061973, -114.115253708078)"
Valley Creek,Calgary School District No. 19,Public School,Valley Creek School,10951 Hidden Valley Drive NW,Calgary,AB,GR4-9,N,CBE Data,1098,N,Y,Y,N,2019/03/03,T3A6J2,1524240,-114.116672870496,51.1502338338754,"(51.1502338338754, -114.116672870496)"
Bishop Kidd,Calgary Roman Catholic Separate School District No. 1,Separate School,Bishop Kidd School,1420 28 St SE,Calgary,AB,Junior High,N,CSSD Data,8702,N,N,Y,N,2019/03/03,T2A0Y8,1382822,-113.992128314767,51.0405771960858,"(51.0405771960858, -113.992128314767)"
David Thompson,Calgary School District No. 19,Public School,David Thompson School,9320 Arbour Crescent SE,Calgary,AB,GR5-9,N,CBE Data,9641,N,Y,Y,N,2019/03/03,T2J1K4,1382277,-114.054651364999,50.9694035885181,"(50.9694035885181, -114.054651364999)"
Earl Grey,Calgary School District No. 19,Public School,Earl Grey School,845 Hillcrest Avenue SW,Calgary,AB,GRK-6,N,CBE Data,9118,Y,Y,N,N,2019/03/03,T2T0Z1,1382517,-114.082653795007,51.0308744947089,"(51.0308744947089, -114.082653795007)"
Chaparral,Calgary School District No. 19,Public School,Chaparral School,480 Chaparral Drive SE,Calgary,AB,GRK-6,N,CBE Data,1331,Y,Y,N,N,2019/03/03,T2X3S2,1382954,-114.044968214913,50.8829640057355,"(50.8829640057355, -114.044968214913)"
Sir Wilfrid Laurier,Calgary School District No. 19,Public School,Sir Wilfrid Laurier School,819 32 Street SE,Calgary,AB,GR6-9,N,CBE Data,9648,N,Y,Y,N,2019/03/03,T2A0Y9,1382134,-113.989306087292,51.0457347724512,"(51.0457347724512, -113.989306087292)"
Renfrew Educational Services-Bowness Centre,Renfrew Educational Services Society,Private School,Renfrew Educational Services-Bowness Centre,2050 - 21 Street N.E.,Calgary,AB,Unknown,N,Provincial Data,437,N,N,N,N,2019/03/03,T3B2B2,1403804,-114.211924435196,51.0963292849549,"(51.0963292849549, -114.211924435196)"
Maria Montessori,"Maria Montessori Education Centre of Calgary, Ltd.",Private School,Maria Montessori School,Chief Crowfoot School 2634 12 Ave NW,Calgary,AB,Elementary/Junior High,N,Provincial Data,1410,N,Y,Y,N,2019/03/03,T2N1K6,1382328,-114.123582617921,51.0627098007845,"(51.0627098007845, -114.123582617921)"
St. Clare,Calgary Roman Catholic Separate School District No. 1,Separate School,St. Clare,12455 Coventry Hills Way NE,Calgary,AB,Elementary,N,CSSD Data,1118,N,Y,N,N,2019/03/03,T3K5Z4,1383528,-114.045395620928,51.1647425257623,"(51.1647425257623, -114.045395620928)"
Phoenix Education Foundation,Phoenix Education Foundation,Private School,Phoenix Education Foundation,320 19 Street S.E.,Calgary,AB,Elementary/Junior High/Senior High,N,Provincial Data,1264,N,Y,Y,Y,2019/03/03,T2E6J6,1005179,-114.007825699564,51.0502641577022,"(51.0502641577022, -114.007825699564)"
G.W. Skene,Calgary School District No. 19,Public School,G.W. Skene School,6226 Penbrooke Drive SE,Calgary,AB,GR3-5,N,CBE Data,9351,N,N,N,N,2019/03/03,T2A6M7,1382840,-113.945220788829,51.045624869971,"(51.045624869971, -113.945220788829)"
Louis Riel,Calgary School District No. 19,Public School,Louis Riel School,9632 Oakfield Drive SW,Calgary,AB,GRK-9,N,CBE Data,9625,Y,Y,Y,N,2019/03/03,T2V0L1,1382892,-114.132257919422,50.9667311264277,"(50.9667311264277, -114.132257919422)"
Joane Cardinal-Schubert High,Calgary School District No. 19,Public School,Joane Cardinal-Schubert High School,19480 - 45 Street SE,Calgary,AB,GR10-11,N,CBE Data,2180,N,N,N,Y,2019/03/03,T3M2P9,2529035,-113.944010425891,50.878022205483,"(50.878022205483, -113.944010425891)"
Monsignor Neville Anderson,Calgary Roman Catholic Separate School District No. 1,Separate School,Monsignor Neville Anderson School,327 Sandarac Dr NW,Calgary,AB,Elementary,N,CSSD Data,8554,N,Y,N,N,2019/03/03,T3K4B2,1369106,-114.104119221273,51.1391561598152,"(51.1391561598152, -114.104119221273)"
Penbrooke Meadows,Calgary School District No. 19,Public School,Penbrooke Meadows School,5645 Pensacola Crescent SE,Calgary,AB,GRK-5,N,CBE Data,9356,Y,Y,N,N,2019/03/03,T2A2G4,1382128,-113.952188795742,51.0417953323871,"(51.0417953323871, -113.952188795742)"
Panorama Hills,Calgary School District No. 19,Public School,Panorama Hills School,1057 Panorama Hills Drive NW,Calgary,AB,GRK-4,N,CBE Data,1452,Y,Y,N,N,2019/03/03,T3K0S4,1375881,-114.085921449104,51.1558140131567,"(51.1558140131567, -114.085921449104)"
Sherwood,Calgary School District No. 19,Public School,Sherwood School,2011 66 Avenue SE,Calgary,AB,GR4-9,N,CBE Data,9632,N,Y,Y,N,2019/03/03,T2C1J4,1382196,-114.011478422708,50.9936966786071,"(50.9936966786071, -114.011478422708)"
F.E. Osborne,Calgary School District No. 19,Public School,F. E. Osborne School,5315 Varsity Drive NW,Calgary,AB,GR7-9,N,CBE Data,9651,N,N,Y,N,2019/03/03,T3A1A7,1384088,-114.162965017473,51.0928118022324,"(51.0928118022324, -114.162965017473)"
Our Lady of the Evergreens,Calgary Roman Catholic Separate School District No. 1,Separate School,Our Lady of the Evergreens Catholic School,322 Everridge Drive SW,Calgary,AB,Elementary,N,CSSD Data,1485,N,Y,N,N,2019/03/03,T2Y0L5,1382253,-114.122194226595,50.9143738110691,"(50.9143738110691, -114.122194226595)"
Hawkwood,Calgary School District No. 19,Public School,Hawkwood School,650 Hawkwood Boulevard NW,Calgary,AB,GRK-6,N,CBE Data,9273,Y,Y,N,N,2019/03/03,T3G2V7,1383684,-114.178746104609,51.130656914873,"(51.130656914873, -114.178746104609)"
École La Mosaïque,The Southern Francophone Education Region No. 4,Francophone,École La Mosaïque,199 Martindale Blvd NE,Calgary,AB,Elementary,N,Provincial Data,1365,N,Y,N,N,2019/03/03,T3J3G4,2365672,-113.957511775779,51.1137667034217,"(51.1137667034217, -113.957511775779)"
Sunalta,Calgary School District No. 19,Public School,Sunalta School,536 Sonora Avenue SW,Calgary,AB,GRK-6,N,CBE Data,9368,Y,Y,N,N,2019/03/03,T3C2J9,1382600,-114.110897654139,51.0413434048884,"(51.0413434048884, -114.110897654139)"
Calgary Academy,Calgary Academy Society,Private School,Calgary Academy,1677 93 rd Street S.W.,Calgary,AB,Elementary/Junior High/Senior High,N,Provincial Data,9908,N,Y,Y,Y,2019/03/03,T3H0R3,1382819,-114.224247937235,51.039430084619,"(51.039430084619, -114.224247937235)"
Janus Academy,Janus Academy Society,Private School,Janus Academy,2223 Spiller Road SE,Calgary,AB,Elementary,N,Provincial Data,32,N,Y,N,N,2019/03/03,T2G4G9,1377882,-114.045789442716,51.0331885880225,"(51.0331885880225, -114.045789442716)"
Bow Valley College,,Post Secondary,,,Calgary,AB,,Y,Post Secondary Data,,N,N,N,N,2019/03/03,T2G4S6,1352704,-114.056199418213,51.0476951141957,"(51.0476951141957, -114.056199418213)"
Auburn Bay,Calgary School District No. 19,Public School,Auburn Bay School,7 Auburn Bay Avenue SE,Calgary,AB,GRK-6,N,CBE Data,2085,Y,Y,N,N,2019/03/03,T3M0K6,2365185,-113.962328023586,50.8967550036387,"(50.8967550036387, -113.962328023586)"
James Fowler High,Calgary School District No. 19,Public School,CLS James Fowler Writing Centre,4004 4 Street NW,Calgary,AB,GR10-12,N,CBE Data,2246,N,N,N,Y,2019/03/03,T2K1A1,1383037,-114.070516303064,51.086532146809,"(51.086532146809, -114.070516303064)"
Sam Livingston,Calgary School District No. 19,Public School,Sam Livingston School,12011 Bonaventure Drive SE,Calgary,AB,GRK-4,N,CBE Data,9354,Y,Y,N,N,2019/03/03,T2J3G7,1382574,-114.061270342249,50.9454481840447,"(50.9454481840447, -114.061270342249)"
Marion Carson,Calgary School District No. 19,Public School,Marion Carson School,5225 Varsity Drive NW,Calgary,AB,GRK-6,N,CBE Data,9241,Y,Y,N,N,2019/03/03,T3A1A7,1382939,-114.161406272111,51.0929165841489,"(51.0929165841489, -114.161406272111)"
Sainte Marguerite Bourgeoys,The Southern Francophone Education Region No. 4,Francophone,Sainte Marguerite Bourgeoys,4700 Richard Road S.W.,Calgary,AB,Elementary/Junior High/Senior High,N,Provincial Data,8707,N,Y,Y,Y,2019/03/03,T3E6L1,1382209,-114.121583185951,51.0111375833166,"(51.0111375833166, -114.121583185951)"
St. Stephen,Calgary Roman Catholic Separate School District No. 1,Separate School,St. Stephen School,10910 Elbow Dr SW,Calgary,AB,Elementary / Junior High,N,CSSD Data,8719,N,Y,Y,N,2019/03/03,T2W1G6,1382268,-114.083852490362,50.9556954133541,"(50.9556954133541, -114.083852490362)"
Young Adult Program,Calgary School District No. 19,Public School,Young Adult Program,1403 29 Street NW,Calgary,AB,SPECIALTY,N,CBE Data,9512,N,N,N,N,2019/03/03,T2N2T9,1586600,-114.134410717164,51.064668759076,"(51.064668759076, -114.134410717164)"
Sir John Franklin,Calgary School District No. 19,Public School,Sir John Franklin School,2215 8 Avenue NE,Calgary,AB,GR5-9,N,CBE Data,9649,N,Y,Y,N,2019/03/03,T2E0T7,1380739,-114.007923058686,51.0596772184234,"(51.0596772184234, -114.007923058686)"
Our Lady of Grace,Calgary Roman Catholic Separate School District No. 1,Separate School,Our Lady of Grace School,736 Evanston Drive NW,Calgary,AB,Elementary / Junior High,N,CSSD Data,2083,N,Y,Y,N,2019/03/03,T3P0N7,2357507,-114.120486602551,51.1793394377019,"(51.1793394377019, -114.120486602551)"
Haysboro,Calgary School District No. 19,Public School,Haysboro School,1123 87 Avenue SW,Calgary,AB,GRK-6,N,CBE Data,9316,Y,Y,N,N,2019/03/03,T2V0W2,1382894,-114.089135773806,50.9754951776305,"(50.9754951776305, -114.089135773806)"
Our Lady of the Assumption,Calgary Roman Catholic Separate School District No. 1,Separate School,Our Lady of the Assumption School,7311 34 Ave NW,Calgary,AB,Elementary / Junior High,N,CSSD Data,8701,N,Y,Y,N,2019/03/03,T3B1N5,1382148,-114.191350259665,51.0832996146841,"(51.0832996146841, -114.191350259665)"
Willow Park,Calgary School District No. 19,Public School,Willow Park School,343 Willow Park Drive SE,Calgary,AB,GR5-9,N,CBE Data,9331,N,Y,Y,N,2019/03/03,T2J0K7,1382886,-114.060687321908,50.9577961580126,"(50.9577961580126, -114.060687321908)"
Langevin,Calgary School District No. 19,Public School,Langevin School,107 6A Street NE,Calgary,AB,GRK-9,N,CBE Data,9609,Y,Y,Y,N,2019/03/03,T2E0B7,1382847,-114.047709610042,51.0528506513027,"(51.0528506513027, -114.047709610042)"
Discovering Choices II - Marlborough,Calgary School District No. 19,Public School,Discovering Choices 2,"92, 1116 3800 Memorial Drive NE",Calgary,AB,OUTREACH,N,CBE Data,1161,N,N,N,N,2019/03/03,T2A2K2,1374532,-113.9784098464,51.055338754642,"(51.055338754642, -113.9784098464)"
Colonel Walker,Calgary School District No. 19,Public School,Colonel Walker School,1921 9 Avenue SE,Calgary,AB,GRK-6,N,CBE Data,9602,Y,Y,N,N,2019/03/03,T2G0V3,1382524,-114.019034738333,51.0343619957554,"(51.0343619957554, -114.019034738333)"
Holy Child,Calgary Roman Catholic Separate School District No. 1,Separate School,Holy Child School,31 Silverado Terrace SW,Calgary,AB,Elementary / Junior High,N,CSSD Data,2160,N,Y,Y,N,2019/03/03,T2X0K4,2382710,-114.083138122926,50.8861830241299,"(50.8861830241299, -114.083138122926)"
Connect Charter,Connect Charter School Society,Charter,Connect Charter School,5915 Lewis Drive S.W.,Calgary,AB,Elementary/Junior High,N,Provincial Data,335,N,Y,Y,N,2019/03/03,T3E5Z4,1382207,-114.135758424817,51.0003735217933,"(51.0003735217933, -114.135758424817)"
A. E. Cross,Calgary School District No. 19,Public School,A. E. Cross School,3445 37 Street SW,Calgary,AB,GR7-9,N,CBE Data,9638,N,N,Y,N,2019/03/03,T3E3C2,1382604,-114.14209579694,51.0232443072172,"(51.0232443072172, -114.14209579694)"
Roland Michener,Calgary School District No. 19,Public School,Roland Michener School,5958 4 Avenue NE,Calgary,AB,GRK-5,N,CBE Data,9250,Y,Y,N,N,2019/03/03,T2A4B1,1381381,-113.947399699722,51.0570193872785,"(51.0570193872785, -113.947399699722)"
William D. Pratt,Calgary School District No. 19,Public School,William D. Pratt School,9850 Royal Oak Way NW,Calgary,AB,GR4-9,N,CBE Data,2067,N,Y,Y,N,2019/03/03,T3G0A4,2357882,-114.224092591348,51.1493606532749,"(51.1493606532749, -114.224092591348)"
Marlborough,Calgary School District No. 19,Public School,Marlborough School,4711 Maryvale Drive NE,Calgary,AB,GRK-5,N,CBE Data,9322,Y,Y,N,N,2019/03/03,T2A3A1,1382216,-113.965499647067,51.0560835691229,"(51.0560835691229, -113.965499647067)"
Mount View,Calgary School District No. 19,Public School,Mount View School,2004 4 Street NE,Calgary,AB,GRK-6,N,CBE Data,9224,Y,Y,N,N,2019/03/03,T2E3T8,1381135,-114.052061894846,51.0696254368519,"(51.0696254368519, -114.052061894846)"
Northwest Elementary Campus,Foundations for the Future Charter Academy Charter School Society,Charter,Northwest Elementary Campus,719-44 Ave NW,Calgary,AB,Elementary,N,Provincial Data,1350,N,Y,N,N,2019/03/03,T2K0J5,1383135,-114.078059409864,51.0931727462862,"(51.0931727462862, -114.078059409864)"
St. Ambrose,Calgary Roman Catholic Separate School District No. 1,Separate School,St. Ambrose School,1500 Arbour Lake Rd NW,Calgary,AB,Elementary / Junior High,N,CSSD Data,390,N,Y,Y,N,2019/03/03,T3G4X9,1383685,-114.206163606179,51.13347037757,"(51.13347037757, -114.206163606179)"
Holy Name,Calgary Roman Catholic Separate School District No. 1,Separate School,Holy Name (Bilingual) School,3011 35 St SW,Calgary,AB,Elementary,N,CSSD Data,8504,N,Y,N,N,2019/03/03,T3E2Y7,1382510,-114.139003602158,51.028271889719,"(51.028271889719, -114.139003602158)"
John G. Diefenbaker High,Calgary School District No. 19,Public School,John G Diefenbaker High School,6620 4 Street NW,Calgary,AB,GR10-12,N,CBE Data,9860,N,N,N,Y,2019/03/03,T2K1C2,1383511,-114.070131165801,51.1127974410161,"(51.1127974410161, -114.070131165801)"
King George,Calgary School District No. 19,Public School,King George School,2108 10 Street NW,Calgary,AB,GRK-6,N,CBE Data,9608,Y,Y,N,N,2019/03/03,T2M3M4,1381140,-114.084055528401,51.0708970682478,"(51.0708970682478, -114.084055528401)"
James Short Memorial,Calgary School District No. 19,Public School,James Short Memorial School,6333 5 Avenue SE,Calgary,AB,GRPRE-K-2,N,CBE Data,9364,Y,Y,N,N,2019/03/03,T2A3V7,1382928,-113.942798303899,51.0478605361312,"(51.0478605361312, -113.942798303899)"
Columbia College,Columbia College Corp.,Private School,Columbia College,802 Manning Road N.E.,Calgary,AB,Senior High,N,Provincial Data,9964,N,N,N,Y,2019/03/03,T2E7N8,1374781,-114.018021963814,51.0570018264273,"(51.0570018264273, -114.018021963814)"
Emily Follensbee,Calgary School District No. 19,Public School,Emily Follensbee School,5139 14 Street SW,Calgary,AB,SPECIALTY,N,CBE Data,9036,N,N,N,N,2019/03/03,T2T3W5,1384216,-114.09557493147,51.0076358722993,"(51.0076358722993, -114.09557493147)"
Fairview,Calgary School District No. 19,Public School,Fairview School,7840 Fairmount Drive SE,Calgary,AB,GR4-9,N,CBE Data,9633,N,Y,Y,N,2019/03/03,T2H0Y1,1382900,-114.059450017762,50.9839855600895,"(50.9839855600895, -114.059450017762)"
Banting and Best,Calgary School District No. 19,Public School,Banting and Best School,1819 66 Avenue SE,Calgary,AB,GRK-3,N,CBE Data,9369,Y,Y,N,N,2019/03/03,T2C2K5,1382908,-114.013853823217,50.993726042518,"(50.993726042518, -114.013853823217)"
Clarence Sansom,Calgary School District No. 19,Public School,Clarence Sansom School,5840 24 Avenue NE,Calgary,AB,GR7-9,N,CBE Data,9682,N,N,Y,N,2019/03/03,T1Y6G4,1383016,-113.94919550352,51.0746134753666,"(51.0746134753666, -113.94919550352)"
St. Maria Goretti,Calgary Roman Catholic Separate School District No. 1,Separate School,St. Maria Goretti Elementary School,375 Hawkstone Dr NW,Calgary,AB,Elementary,N,CSSD Data,8556,N,Y,N,N,2019/03/03,T3G3T7,1413751,-114.177750729407,51.1345242224129,"(51.1345242224129, -114.177750729407)"
St. Cecilia,Calgary Roman Catholic Separate School District No. 1,Separate School,St. Cecilia (Bilingual) Elementary School,610 Agate Cres SE,Calgary,AB,Elementary,N,CSSD Data,8513,N,Y,N,N,2019/03/03,T2J0Z3,1382891,-114.050411102801,50.9652960823221,"(50.9652960823221, -114.050411102801)"
Calgary German Language School Society,Calgary German Language School Society,Private School,Calgary German Language School Society,3940 73 Street NW,Calgary,AB,Unknown,N,Provincial Data,9925,N,N,N,N,2019/03/03,T3B2L9,1382349,-114.19278889034,51.0875590584316,"(51.0875590584316, -114.19278889034)"
St. Bernadette,Calgary Roman Catholic Separate School District No. 1,Separate School,St. Bernadette School,55 Lynndale Cres SE,Calgary,AB,Elementary,N,CSSD Data,8709,N,Y,N,N,2019/03/03,T2C0T8,1541842,-114.0091978203,50.990390881488,"(50.990390881488, -114.0091978203)"
Bob Edwards,Calgary School District No. 19,Public School,Bob Edwards School,4424 Marlborough Drive NE,Calgary,AB,GR6-9,N,CBE Data,9623,N,Y,Y,N,2019/03/03,T2A2Z5,1381386,-113.96877372842,51.0599293996757,"(51.0599293996757, -113.96877372842)"
Holy Trinity,Calgary Roman Catholic Separate School District No. 1,Separate School,Holy Trinity School,1717 41 St SE,Calgary,AB,Elementary,N,CSSD Data,8506,N,Y,N,N,2019/03/03,T2A1L2,1382817,-113.974945592245,51.0389700080979,"(51.0389700080979, -113.974945592245)"
Colonel Irvine,Calgary School District No. 19,Public School,Colonel Irvine School,412 Northmount Drive NW,Calgary,AB,GR5-9,N,CBE Data,9622,N,Y,Y,N,2019/03/03,T2K3H6,1384087,-114.079932054752,51.0924367615179,"(51.0924367615179, -114.079932054752)"
Rundle College Elementary,Rundle College Society,Private School,Rundle College Elementary School,7615 - 17 Ave SW,Calgary,AB,Elementary,N,Provincial Data,9979,N,Y,N,N,2019/03/03,T3H3W5,2362137,-114.197319688988,51.036713086051,"(51.036713086051, -114.197319688988)"
Hillhurst,Calgary School District No. 19,Public School,Hillhurst School,1418 7 Avenue NW,Calgary,AB,GRK-6,N,CBE Data,9218,Y,Y,N,N,2019/03/03,T2N0Z2,1381385,-114.09313718396,51.0592947663805,"(51.0592947663805, -114.09313718396)"
Holy Cross,Calgary Roman Catholic Separate School District No. 1,Separate School,Holy Cross Elementary Junior High School,3719 26 Ave SE,Calgary,AB,Elementary / Junior High,N,CSSD Data,8704,N,Y,Y,N,2019/03/03,T2B0C6,1382831,-113.979562542452,51.0300554058093,"(51.0300554058093, -113.979562542452)"
Vincent Massey,Calgary School District No. 19,Public School,Vincent Massey School,939 45 Street SW,Calgary,AB,GR7-9,N,CBE Data,9628,N,N,Y,N,2019/03/03,T3C2B9,1382130,-114.153423103904,51.0440372581387,"(51.0440372581387, -114.153423103904)"
St. Damien,Calgary Roman Catholic Separate School District No. 1,Separate School,St. Damien School,3619 28 St SE,Calgary,AB,Elementary,N,CSSD Data,8550,N,Y,N,N,2019/03/03,T2B2J1,1382602,-113.992197078642,51.0219097042796,"(51.0219097042796, -113.992197078642)"
Dr. Gordon Higgins,Calgary School District No. 19,Public School,Dr. Gordon Higgins School,155 Rundlehill Drive NE,Calgary,AB,GR7-9,N,CBE Data,9346,N,N,Y,N,2019/03/03,T1Y2W9,1383017,-113.970664033464,51.0752696680672,"(51.0752696680672, -113.970664033464)"
St. Joseph,Calgary Roman Catholic Separate School District No. 1,Separate School,St. Joseph Elementary Junior High School,2512 5 St NW,Calgary,AB,Elementary / Junior High,N,CSSD Data,8713,N,Y,Y,N,2019/03/03,T2M3C7,1380561,-114.073316922349,51.0747865735387,"(51.0747865735387, -114.073316922349)"
Discovering Choices - Downtown - CACY,Calgary School District No. 19,Public School,Discovering Choices,"206, 315 10 Avenue SE",Calgary,AB,OUTREACH,N,CBE Data,9868,N,N,N,N,2019/03/03,T2G0W2,1428383,-114.056693260241,51.0428705066624,"(51.0428705066624, -114.056693260241)"
Canyon Meadows,Calgary School District No. 19,Public School,Canyon Meadows School,395 Canterbury Drive SW,Calgary,AB,GRK-5,N,CBE Data,9355,Y,Y,N,N,2019/03/03,T2W1J1,1382575,-114.078091154179,50.9474103596304,"(50.9474103596304, -114.078091154179)"
River Valley,River Valley School Society,Private School,River Valley School,3127 Bowwood Drive N.W.,Calgary,AB,Elementary,N,Provincial Data,9921,N,Y,N,N,2019/03/03,T3B2E7,1376234,-114.174344090246,51.0794694128566,"(51.0794694128566, -114.174344090246)"
Mount Royal University - City Centre Campus,,Post Secondary,,,Calgary,AB,,Y,Post Secondary Data,,N,N,N,N,2019/03/03,T2P3T5,1005439,-114.080310820822,51.0495528330307,"(51.0495528330307, -114.080310820822)"
Collingwood,Calgary School District No. 19,Public School,Collingwood School,3826 Collingwood Drive NW,Calgary,AB,GRK-5,N,CBE Data,9212,Y,Y,N,N,2019/03/03,T2L0R6,1382295,-114.103257514116,51.0857819241934,"(51.0857819241934, -114.103257514116)"
Monsignor J.J. O'Brien,Calgary Roman Catholic Separate School District No. 1,Separate School,Monsignor J. J. O'Brien,99 Bridlewood Rd SW,Calgary,AB,Elementary / Junior High,N,CSSD Data,589,N,Y,Y,N,2019/03/03,T2Y4J5,1382188,-114.103860008109,50.9015676029889,"(50.9015676029889, -114.103860008109)"
Greek Community,Hellenic Society of Calgary and District,Private School,Greek Community School,1 Tamarac Crescent S.W.,Calgary,AB,Unknown,N,Provincial Data,9957,N,N,N,N,2019/03/03,T3C3B7,1377463,-114.13749373808,51.0481739099386,"(51.0481739099386, -114.13749373808)"
Peter Lougheed,Calgary School District No. 19,Public School,Peter Lougheed School,148 Saddletree Close NE,Calgary,AB,GR5-9,N,CBE Data,2068,N,Y,Y,N,2019/03/03,T3J5J1,2357896,-113.955683227314,51.1306696315577,"(51.1306696315577, -113.955683227314)"
Citadel Park,Calgary School District No. 19,Public School,Citadel Park School,808 Citadel Drive NW,Calgary,AB,GRK-4,N,CBE Data,1332,Y,Y,N,N,2019/03/03,T3G4B8,1383729,-114.174234518245,51.1454510589892,"(51.1454510589892, -114.174234518245)"
Belfast,Calgary School District No. 19,Public School,Belfast School,1229 17A Street NE,Calgary,AB,GRK-6,N,CBE Data,9203,Y,Y,N,N,2019/03/03,T2E4V4,1382330,-114.01830826164,51.0633749850541,"(51.0633749850541, -114.01830826164)"
Chris Akkerman,Calgary School District No. 19,Public School,Chris Akkerman School,5004 Marbank Drive NE,Calgary,AB,GRK-5,N,CBE Data,9339,Y,Y,N,N,2019/03/03,T2A3J6,1382333,-113.963010966773,51.0637572713232,"(51.0637572713232, -113.963010966773)"
Coventry Hills,Calgary School District No. 19,Public School,Coventry Hills School,12350 Coventry Hills Way NE,Calgary,AB,GRPRE-K-3,N,CBE Data,1038,Y,Y,N,N,2019/03/03,T3K5S9,1383529,-114.051413663958,51.1651804040156,"(51.1651804040156, -114.051413663958)"
Nellie McClung,Calgary School District No. 19,Public School,Nellie McClung School,2315 Palliser Drive SW,Calgary,AB,GRK-6,N,CBE Data,9333,Y,Y,N,N,2019/03/03,T2V3S4,1382593,-114.113013755696,50.9684953012437,"(50.9684953012437, -114.113013755696)"
Dr. E.P. Scarlett High,Calgary School District No. 19,Public School,Dr. E. P. Scarlett High School,220 Canterbury Drive SW,Calgary,AB,GR10-12,N,CBE Data,9858,N,N,N,Y,2019/03/03,T2W1H4,1382810,-114.087971948731,50.9487873629379,"(50.9487873629379, -114.087971948731)"
Jennie Elliott,Calgary School District No. 19,Public School,Jennie Elliott School,3031 Lindsay Drive SW,Calgary,AB,GRK-6,N,CBE Data,9103,Y,Y,N,N,2019/03/03,T3E6A9,1382197,-114.12722864308,50.9961295624074,"(50.9961295624074, -114.12722864308)"
Olympic Heights,Calgary School District No. 19,Public School,Olympic Heights School,875 Strathcona Drive SW,Calgary,AB,GRK-6,N,CBE Data,9382,Y,Y,N,N,2019/03/03,T3H2Z7,1382135,-114.180776462904,51.0459675862222,"(51.0459675862222, -114.180776462904)"
Ramsay,Calgary School District No. 19,Public School,Ramsay School,2223 Spiller Road SE,Calgary,AB,GRK-6,N,CBE Data,9130,Y,Y,N,N,2019/03/03,T2G4G9,1377882,-114.045789442716,51.0331885880225,"(51.0331885880225, -114.045789442716)"
Discovering Choices - Westbrook Outreach,Calgary School District No. 19,Public School,Westbrook Outreach,"3, 1002 37 Street SW",Calgary,AB,OUTREACH,N,CBE Data,1260,N,N,N,N,2019/03/03,T3C1S1,1585948,-114.140306844474,51.0442879860746,"(51.0442879860746, -114.140306844474)"
Webber Academy,Webber Academy Foundation,Private School,Webber Academy,1515 - 93 Street SW,Calgary,AB,Elementary/Junior High/Senior High,N,Provincial Data,21,N,Y,Y,Y,2019/03/03,T3H4A8,1588053,-114.225022071412,51.0441214540501,"(51.0441214540501, -114.225022071412)"
Our Lady of Lourdes,Calgary Roman Catholic Separate School District No. 1,Separate School,Our Lady of Lourdes,1916 2 St SW,Calgary,AB,Elementary / Junior High / Senior High,N,CSSD Data,598,N,Y,Y,Y,2019/03/03,T2S1S3,1379069,-114.068160346876,51.0356731179871,"(51.0356731179871, -114.068160346876)"
Ernest Manning High,Calgary School District No. 19,Public School,Ernest Manning High School,20 Springborough Boulevard SW,Calgary,AB,GR10-12,N,CBE Data,9826,N,N,N,Y,2019/03/03,T3H0N7,1539496,-114.189235339884,51.035957024168,"(51.035957024168, -114.189235339884)"
Rundle College Junior High,Rundle College Society,Private School,Rundle College Junior High School,7375 - 17 Avenue SW,Calgary,AB,Junior High,N,Provincial Data,5002,N,N,Y,N,2019/03/03,T3H3W5,1382816,-114.193922082318,51.036894107398,"(51.036894107398, -114.193922082318)"
Don Bosco,Calgary Roman Catholic Separate School District No. 1,Separate School,Don Bosco School,13615 Deer Ridge Dr SE,Calgary,AB,Elementary / Junior High,N,CSSD Data,8727,N,Y,Y,N,2019/03/03,T2J6S7,1382581,-114.018252656818,50.9313006910346,"(50.9313006910346, -114.018252656818)"
Westgate,Calgary School District No. 19,Public School,Westgate School,150 Westminster Drive SW,Calgary,AB,GRK-6,N,CBE Data,9140,Y,Y,N,N,2019/03/03,T3C2T3,1000910,-114.159199840344,51.0444881458484,"(51.0444881458484, -114.159199840344)"
Clear Water Academy,Clear Water Academy Foundation,Private School,Clear Water Academy,2521 Dieppe Avenue SW,Calgary,AB,Elementary/Junior High/Senior High,N,Provincial Data,7976,N,Y,Y,Y,2019/03/03,T3E7J9,1000708,-114.120973960914,51.0193760417561,"(51.0193760417561, -114.120973960914)"
Eric Harvie,Calgary School District No. 19,Public School,Eric Harvie School,357 Tuscany Drive NW,Calgary,AB,GRK-4,N,CBE Data,2031,Y,Y,N,N,2019/03/03,T3L3C9,2365208,-114.251111122903,51.1280418777408,"(51.1280418777408, -114.251111122903)"
Art Smith Aero Centre,,Post Secondary,,,Calgary,AB,,Y,Post Secondary Data,,N,N,N,N,2019/03/03,T2E9B5,1374654,-114.005456270064,51.1011594046186,"(51.1011594046186, -114.005456270064)"
Griffith Woods,Calgary School District No. 19,Public School,Griffith Woods School,7652 26 Avenue SW,Calgary,AB,GRK-9,N,CBE Data,2147,Y,Y,Y,N,2019/03/03,T3H3X2,2427822,-114.19474696299,51.030979407944,"(51.030979407944, -114.19474696299)"
St. Pius X,Calgary Roman Catholic Separate School District No. 1,Separate School,Ecole St. Pius X School,2312 18 St NW,Calgary,AB,Elementary,N,CSSD Data,8524,N,Y,N,N,2019/03/03,T2M3T5,1383009,-114.103406263171,51.0729725334332,"(51.0729725334332, -114.103406263171)"
South Middle School Campus,Foundations for the Future Charter Academy Charter School Society,Charter,South Middle School Campus,8710 Ancourt Rd. SE,Calgary,AB,Elementary/Junior High,N,Provincial Data,1351,N,Y,Y,N,2019/03/03,T2H1V2,1382501,-114.053305028907,50.975290241194,"(50.975290241194, -114.053305028907)"
Midsun,Calgary School District No. 19,Public School,Midsun School,660 Sunmills Drive SE,Calgary,AB,GR7-9,N,CBE Data,348,N,N,Y,N,2019/03/03,T2X3R5,1382959,-114.030915367945,50.9018494706971,"(50.9018494706971, -114.030915367945)"
West Dover,Calgary School District No. 19,Public School,West Dover School,3113 30 Avenue SE,Calgary,AB,GRK-5,N,CBE Data,9357,Y,Y,N,N,2019/03/03,T2B0G9,1382974,-113.990647959381,51.0263292242238,"(51.0263292242238, -113.990647959381)"
Trinity Christian,Palliser Regional Division No. 26,Public School,Trinity Christian School,"#100, 295 Midpark Way S.E.",Calgary,AB,Elementary/Junior High,N,Provincial Data,9973,N,Y,Y,N,2019/03/03,T2X2A8,1551635,-114.062240403985,50.9093282304568,"(50.9093282304568, -114.062240403985)"
Madeleine d'Houet,Calgary Roman Catholic Separate School District No. 1,Separate School,Madeleine D' Houet Bilingual School,108 22 St NW,Calgary,AB,Junior High,N,CSSD Data,8728,N,N,Y,N,2019/03/03,T2N2M8,1382140,-114.112238301402,51.0531936071066,"(51.0531936071066, -114.112238301402)"
Radisson Park,Calgary School District No. 19,Public School,Radisson Park School,2805 Radcliffe Drive SE,Calgary,AB,GRK-5,N,CBE Data,1334,Y,Y,N,N,2019/03/03,T2A0C8,1382841,-113.99223298724,51.0461613631759,"(51.0461613631759, -113.99223298724)"
Glenmore Christian Academy Elementary,GCA Educational Society,Private School,Glenmore Christian Academy Elementary,16520 - 24 Street S.W.,Calgary,AB,Elementary,N,Provincial Data,9928,N,Y,N,N,2019/03/03,T2Y4W2,1590356,-114.115253708078,50.9039795061973,"(50.9039795061973, -114.115253708078)"
Calgary Christian High,Palliser Regional Division No. 26,Public School,Calgary Christian High School,5029 - 26 Avenue S.W.,Calgary,AB,Junior High/Senior High,N,Provincial Data,9978,N,N,Y,Y,2019/03/03,T3E0R5,1382516,-114.158941090663,51.0297633570315,"(51.0297633570315, -114.158941090663)"
Dr. George Stanley,Calgary School District No. 19,Public School,Dr. George Stanley School,585 Cranston Drive SW,Calgary,AB,GR4-9,N,CBE Data,2084,N,Y,Y,N,2019/03/03,T3M0J4,2417018,-113.978288855923,50.8827771546132,"(50.8827771546132, -113.978288855923)"
William Reid,Calgary School District No. 19,Public School,William Reid School,1216 36 Avenue SW,Calgary,AB,GRK-4,N,CBE Data,9142,Y,Y,N,N,2019/03/03,T2T2E9,1382204,-114.090342811858,51.0221745013603,"(51.0221745013603, -114.090342811858)"
Alberta College of Art and Design,,Post Secondary,,,Calgary,AB,,Y,Post Secondary Data,,N,N,N,N,2019/03/03,,1382329,-114.090374218583,51.0632960956846,"(51.0632960956846, -114.090374218583)"
St. Thomas More,Calgary Roman Catholic Separate School District No. 1,Separate School,St. Thomas More School,6110 Temple Dr NE,Calgary,AB,Elementary,N,CSSD Data,8544,N,Y,N,N,2019/03/03,T1Y5V4,1382345,-113.945555985167,51.0853532228877,"(51.0853532228877, -113.945555985167)"
Our Lady of the Rosary,Calgary Roman Catholic Separate School District No. 1,Separate School,Our Lady of the Rosary School,41 Cranston Gate SE,Calgary,AB,Elementary,N,CSSD Data,2081,N,Y,N,N,2019/03/03,T3M0W7,2390392,-113.968206058883,50.874429184093,"(50.874429184093, -113.968206058883)"
Dr. Martha Cohen,Calgary School District No. 19,Public School,Dr. Martha Cohen School,116 Brightondale Park SE,Calgary,AB,GR5-9,N,CBE Data,2070,N,Y,Y,N,2019/03/03,T2Z0V1,2365833,-113.944732404059,50.9170989228581,"(50.9170989228581, -113.944732404059)"
St. Margaret,Calgary Roman Catholic Separate School District No. 1,Separate School,St. Margaret School,3320 Carol Dr NW,Calgary,AB,Elementary / Junior High,N,CSSD Data,8714,N,Y,Y,N,2019/03/03,T2L0K7,1382342,-114.097637402785,51.0821353192524,"(51.0821353192524, -114.097637402785)"
Dr. Roberta Bondar,Calgary School District No. 19,Public School,Dr. Roberta Bondar School,1580 Strathcona Drive SW,Calgary,AB,GRK-6,N,CBE Data,2054,Y,Y,N,N,2019/03/03,T3H5B1,2440324,-114.205530451856,51.0503367236961,"(51.0503367236961, -114.205530451856)"
St. Michael,Calgary Roman Catholic Separate School District No. 1,Separate School,St. Michael School,4511 8 Ave SW,Calgary,AB,Elementary / Junior High,N,CSSD Data,8717,N,Y,Y,N,2019/03/03,T3C0G9,1382837,-114.151577454176,51.0447849103607,"(51.0447849103607, -114.151577454176)"
National Sports,Calgary School District No. 19,Public School,National Sport School,"110, 151 Olympic Park Road SW",Calgary,AB,GR9-12,N,CBE Data,9830,N,N,Y,Y,2019/03/03,,1557802,-114.221026501532,51.0847948124862,"(51.0847948124862, -114.221026501532)"
Ecole de La Source,The Southern Francophone Education Region No. 4,Francophone,Ecole de La Source,360 - 94 Avenue S.E.,Calgary,AB,Elementary/Junior High/Senior High,N,Provincial Data,1014,N,Y,Y,Y,2019/03/03,T2J0E8,1382595,-114.061831380402,50.9691787567389,"(50.9691787567389, -114.061831380402)"
Central Memorial High,Calgary School District No. 19,Public School,Central Memorial High School,5111 21 Street SW,Calgary,AB,GR10-12,N,CBE Data,9823,N,N,N,Y,2019/03/03,T3E1R9,1382208,-114.113520463743,51.007927879674,"(51.007927879674, -114.113520463743)"
Capitol Hill,Calgary School District No. 19,Public School,Capitol Hill School,2210 18 Street NW,Calgary,AB,GRK-6,N,CBE Data,9209,Y,Y,N,N,2019/03/03,T2M3T4,1383006,-114.103917538037,51.0720766329197,"(51.0720766329197, -114.103917538037)"
Ted Harrison,Calgary School District No. 19,Public School,Ted Harrison School,215 Taravista Way NE,Calgary,AB,GR5-9,N,CBE Data,1677,N,Y,Y,N,2019/03/03,T3J4L1,1545880,-113.928254208508,51.1172327511043,"(51.1172327511043, -113.928254208508)"
Bishop McNally High,Calgary Roman Catholic Separate School District No. 1,Separate School,Bishop McNally High School,5700 Falconridge Blvd NE,Calgary,AB,Senior High,N,CSSD Data,8907,N,N,N,Y,2019/03/03,T3J3N4,1383227,-113.953705878133,51.1030304206559,"(51.1030304206559, -113.953705878133)"
Bishop Grandin High,Calgary Roman Catholic Separate School District No. 1,Separate School,Bishop Grandin High School,111 Haddon Rd SW,Calgary,AB,Senior High,N,CSSD Data,8901,N,N,N,Y,2019/03/03,T2V2Y2,1382278,-114.078740977051,50.975437769704,"(50.975437769704, -114.078740977051)"
Robert Thirsk High,Calgary School District No. 19,Public School,Robert Thirsk School,8777 Nose Hill Drive NW,Calgary,AB,GR10-12,N,CBE Data,1679,N,N,N,Y,2019/03/03,T3G5T3,1545308,-114.194778259503,51.1308413397963,"(51.1308413397963, -114.194778259503)"
McKenzie Highlands,Calgary School District No. 19,Public School,McKenzie Highlands School,25 McKenzie Towne Drive SE,Calgary,AB,GR4-9,N,CBE Data,2055,N,Y,Y,N,2019/03/03,T2Z4B7,2365707,-113.970073220433,50.9109936563459,"(50.9109936563459, -113.970073220433)"
St. Anthony,Calgary Roman Catholic Separate School District No. 1,Separate School,St. Anthony,4811 6 St SW,Calgary,AB,Elementary / Junior High / Senior High,N,CSSD Data,8515,N,Y,Y,Y,2019/03/03,T2S2N5,1377870,-114.079295138596,51.0101077490379,"(51.0101077490379, -114.079295138596)"
Keeler,Calgary School District No. 19,Public School,Keeler School,4807 Forego Avenue SE,Calgary,AB,GRPRE-K-5,N,CBE Data,9318,Y,Y,N,N,2019/03/03,T2A2C4,1382138,-113.96481312102,51.0492568228701,"(51.0492568228701, -113.96481312102)"
River Valley School ECS,River Valley School Society,Private School,River Valley School ECS,3127 Bowwood Drive N.W.,Calgary,AB,Unknown,N,Provincial Data,1906,N,N,N,N,2019/03/03,T3B2E7,1376234,-114.174344090246,51.0794694128566,"(51.0794694128566, -114.174344090246)"
Simons Valley,Calgary School District No. 19,Public School,Simons Valley School,375 Sandarac Drive NW,Calgary,AB,GRK-6,N,CBE Data,9383,Y,Y,N,N,2019/03/03,T3K4B2,1383728,-114.107325958886,51.1396781301646,"(51.1396781301646, -114.107325958886)"
Our Lady of Fatima,Calgary Roman Catholic Separate School District No. 1,Separate School,Our Lady of Fatima,6320 Taralea Pk NE,Calgary,AB,Elementary,N,CSSD Data,1226,N,Y,N,N,2019/03/03,T3J5C4,1384102,-113.937910232433,51.1163217466884,"(51.1163217466884, -113.937910232433)"
University of Calgary - Downtown Campus,,Post Secondary,,,Calgary,AB,,Y,Post Secondary Data,,N,N,N,N,2019/03/03,T2P1H9,1417012,-114.082127524913,51.0463612997713,"(51.0463612997713, -114.082127524913)"
Maria Montessori School - cSPACE King Edward Location,"Maria Montessori Education Centre of Calgary, Ltd.",Private School,Maria Montessori School - cSPACE King Edward Location,cSPACE Projects 1721-29 Avenue SW,Calgary,AB,Unknown,N,Provincial Data,2167,N,N,N,N,2019/03/03,T2T6T7,1524096,-114.100883437891,51.0272698604233,"(51.0272698604233, -114.100883437891)"
Queen Elizabeth High,Calgary School District No. 19,Public School,Queen Elizabeth High School,512 18 Street NW,Calgary,AB,GR7-12,N,CBE Data,9806,N,N,Y,Y,2019/03/03,T2N2G5,1415642,-114.101916287117,51.0562024346068,"(51.0562024346068, -114.101916287117)"
St. Benedict,Calgary Roman Catholic Separate School District No. 1,Separate School,St. Benedict School,10340 19 St SW,Calgary,AB,Elementary,N,CSSD Data,8511,N,Y,N,N,2019/03/03,T2V1R2,1382889,-114.10544704958,50.9619936999308,"(50.9619936999308, -114.10544704958)"
St. Marguerite,Calgary Roman Catholic Separate School District No. 1,Separate School,St. Marguerite School,1100 New Brighton Drive SE,Calgary,AB,Elementary,N,CSSD Data,2082,N,Y,N,N,2019/03/03,T2Z0W1,2389334,-113.937230754978,50.9211549137532,"(50.9211549137532, -113.937230754978)"
Centennial High,Calgary School District No. 19,Public School,Centennial High School,55 Sun Valley Boulevard SE,Calgary,AB,GR10-12,N,CBE Data,1224,N,N,N,Y,2019/03/03,T2X3W7,1382256,-114.053354846572,50.9061096829548,"(50.9061096829548, -114.053354846572)"
Hidden Valley,Calgary School District No. 19,Public School,Hidden Valley School,10959 Hidden Valley Drive NW,Calgary,AB,GRK-3,N,CBE Data,535,Y,Y,N,N,2019/03/03,T3A6J2,1383732,-114.119589958504,51.1502537591877,"(51.1502537591877, -114.119589958504)"
Southeast Elementary Campus,Foundations for the Future Charter Academy Charter School Society,Charter,Southeast Elementary Campus,9711 Academy Drive SE,Calgary,AB,Elementary,N,Provincial Data,1348,N,Y,N,N,2019/03/03,T2J1A9,1371038,-114.04540628449,50.9672419259707,"(50.9672419259707, -114.04540628449)"
Woodman,Calgary School District No. 19,Public School,Woodman School,8706 Elbow Drive SW,Calgary,AB,GR5-9,N,CBE Data,9631,N,Y,Y,N,2019/03/03,T2V1L2,1382896,-114.083212984475,50.9756583073624,"(50.9756583073624, -114.083212984475)"
Nickle,Calgary School District No. 19,Public School,Nickle School,2500 Lake Bonavista Drive SE,Calgary,AB,GR4-8,N,CBE Data,9654,N,Y,Y,N,2019/03/03,T2J2Y6,1382503,-114.061434768869,50.9407367275345,"(50.9407367275345, -114.061434768869)"
St. Helena,Calgary Roman Catholic Separate School District No. 1,Separate School,St. Helena School,320 64 Ave NW,Calgary,AB,Junior High,N,CSSD Data,8711,N,N,Y,N,2019/03/03,T2K0L8,1384097,-114.067761923971,51.1115066954332,"(51.1115066954332, -114.067761923971)"
St. Teresa of Calcutta,Calgary Roman Catholic Separate School District No. 1,Separate School,St. Teresa of Calcutta School,121 Midlake Blvd SE,Calgary,AB,Elementary,N,CSSD Data,8542,N,Y,N,N,2019/03/03,T2X1T7,1541834,-114.052117221253,50.9144204022093,"(50.9144204022093, -114.052117221253)"
Lester B. Pearson High,Calgary School District No. 19,Public School,Lester B. Pearson High School,3020 52 Street NE,Calgary,AB,GR10-12,N,CBE Data,9865,N,N,N,Y,2019/03/03,T1Y5P4,1382280,-113.956397574163,51.0769499205554,"(51.0769499205554, -113.956397574163)"
Ian Bazalgette,Calgary School District No. 19,Public School,Ian Bazalgette School,3909 26 Avenue SE,Calgary,AB,GR6-9,N,CBE Data,9613,N,Y,Y,N,2019/03/03,T2B0C6,1382832,-113.977678149745,51.0298325520281,"(51.0298325520281, -113.977678149745)"
Ranchlands,Calgary School District No. 19,Public School,Ranchlands School,610 Ranchlands Boulevard NW,Calgary,AB,GRK-6,N,CBE Data,9374,Y,Y,N,N,2019/03/03,T3G2C5,1537651,-114.179209729291,51.1187048309555,"(51.1187048309555, -114.179209729291)"
Wildwood,Calgary School District No. 19,Public School,Wildwood School,120 45 Street SW,Calgary,AB,GRK-6,N,CBE Data,9141,Y,Y,N,N,2019/03/03,T3C2B3,1382147,-114.15211656432,51.0515895485028,"(51.0515895485028, -114.15211656432)"
Calgary Academy Collegiate,Calgary Academy Society,Private School,Calgary Academy Collegiate,1677 - 93rd Street S.W.,Calgary,AB,Elementary/Junior High/Senior High,N,Provincial Data,1015,N,Y,Y,Y,2019/03/03,T3H0R3,1382819,-114.224247937235,51.039430084619,"(51.039430084619, -114.224247937235)"
Father Doucet,Calgary Roman Catholic Separate School District No. 1,Separate School,Father Doucet School,65 Shannon Dr SW,Calgary,AB,Elementary,N,CSSD Data,8551,N,Y,N,N,2019/03/03,T2Y2T5,1382252,-114.085168870289,50.9093442301602,"(50.9093442301602, -114.085168870289)"
Cranston,Calgary School District No. 19,Public School,Cranston School,205 Cranston Drive SE,Calgary,AB,GRK-3,N,CBE Data,1499,Y,Y,N,N,2019/03/03,T3M1E8,1370431,-113.987241826632,50.8867871384329,"(50.8867871384329, -113.987241826632)"
Bishop O'Byrne High,Calgary Roman Catholic Separate School District No. 1,Separate School,Bishop O'Byrne High School,500 333 Shawville Blvd SE,Calgary,AB,Senior High,N,CSSD Data,581,N,N,N,Y,2019/03/03,T2Y4H3,1559224,-114.064566768456,50.8980918487179,"(50.8980918487179, -114.064566768456)"
Captain Nichola Goddard,Calgary School District No. 19,Public School,Captain Nichola Goddard School,405 Panatella Boulevard NW,Calgary,AB,GR5-9,N,CBE Data,1676,N,Y,Y,N,2019/03/03,T3K0P3,1546748,-114.088678756384,51.1624509286035,"(51.1624509286035, -114.088678756384)"
Braeside,Calgary School District No. 19,Public School,Braeside School,1747 107 Avenue SW,Calgary,AB,GRK-6,N,CBE Data,9305,Y,Y,N,N,2019/03/03,T2W0C3,1382885,-114.101694315462,50.9566735592771,"(50.9566735592771, -114.101694315462)"
Canadian Montessori School West,The Canadian Montessori School Ltd.,Private School,Canadian Montessori School West,1112 - 70 Avenue S.W.,Calgary,AB,Unknown,N,Provincial Data,1686,N,N,N,N,2019/03/03,T2V0P6,1186607,-114.088262165573,50.9907447322797,"(50.9907447322797, -114.088262165573)"
Briar Hill,Calgary School District No. 19,Public School,Briar Hill School,1233 21 Street NW,Calgary,AB,GRK-6,N,CBE Data,9205,Y,Y,N,N,2019/03/03,T2N2L8,1381389,-114.111418541631,51.0631132950401,"(51.0631132950401, -114.111418541631)"
Simon Fraser,Calgary School District No. 19,Public School,Simon Fraser School,5215 33 Street NW,Calgary,AB,GR5-9,N,CBE Data,9646,N,Y,Y,N,2019/03/03,T2L1V3,1383906,-114.136550452179,51.1003194084663,"(51.1003194084663, -114.136550452179)"
St. Basil,Calgary Roman Catholic Separate School District No. 1,Separate School,St. Basil Elementary/Junior High School,919 Tuscany Dr NW,Calgary,AB,Elementary / Junior High,N,CSSD Data,1337,N,Y,Y,N,2019/03/03,T3L2T5,1370763,-114.250334757978,51.1194137922303,"(51.1194137922303, -114.250334757978)"
FFCA High School Campus,Foundations for the Future Charter Academy Charter School Society,Charter,FFCA High School Campus,2116 McKay Road N.W.,Calgary,AB,Junior High/Senior High,N,Provincial Data,12,N,N,Y,Y,2019/03/03,T3B1C7,1380147,-114.151927798788,51.0695810601221,"(51.0695810601221, -114.151927798788)"
Acadia,Calgary School District No. 19,Public School,Acadia School,9603 5 Street SE,Calgary,AB,GRK-6,N,CBE Data,9300,Y,Y,N,N,2019/03/03,T2J1K4,1382272,-114.053926861394,50.9676106188077,"(50.9676106188077, -114.053926861394)"
Sundance,Calgary School District No. 19,Public School,Sundance School,200 Sunmills Drive SE,Calgary,AB,GRK-6,N,CBE Data,9267,Y,Y,N,N,2019/03/03,T2X2N9,1382957,-114.04681306876,50.9006605693113,"(50.9006605693113, -114.04681306876)"
Calgary Jewish Academy,The Calgary Jewish Academy,Private School,Calgary Jewish Academy,6700 Kootenay Street S.W.,Calgary,AB,Elementary/Junior High,N,Provincial Data,9911,N,Y,Y,N,2019/03/03,T2V1P7,1382195,-114.092606483223,50.9934947229922,"(50.9934947229922, -114.092606483223)"
St. Isabella,Calgary Roman Catholic Separate School District No. 1,Separate School,St. Isabella School,855 Copperfield Blvd SE,Calgary,AB,Elementary / Junior High,N,CSSD Data,1680,N,Y,Y,N,2019/03/03,T2Z4W8,1548028,-113.935988984443,50.9105831897695,"(50.9105831897695, -113.935988984443)"
Renfrew Educational Services - Park Place Centre,Renfrew Educational Services Society,Private School,Renfrew Educational Services - Park Place Centre,2050 - 21 Street N.E.,Calgary,AB,Unknown,N,Provincial Data,281,N,N,N,N,2019/03/03,T2E6S5,1381134,-114.008291667844,51.0696209641237,"(51.0696209641237, -114.008291667844)"
Haultain Memorial,Calgary School District No. 19,Public School,Haultain Memorial School,605 Queensland Drive SE,Calgary,AB,GRK-6,N,CBE Data,9362,Y,Y,N,N,2019/03/03,T2J4S8,1382502,-114.023318731462,50.9395441689574,"(50.9395441689574, -114.023318731462)"
Riverbend,Calgary School District No. 19,Public School,Riverbend School,65 Rivervalley Drive SE,Calgary,AB,GRK-6,N,CBE Data,9386,Y,Y,N,N,2019/03/03,T2C3Z7,1382597,-114.018502053095,50.9721562403216,"(50.9721562403216, -114.018502053095)"
St. Bonaventure,Calgary Roman Catholic Separate School District No. 1,Separate School,St. Bonaventure School,1710 Acadia Dr SE,Calgary,AB,Junior High,N,CSSD Data,8721,N,N,Y,N,2019/03/03,T2J3X8,1382261,-114.047181209519,50.9317370610013,"(50.9317370610013, -114.047181209519)"
Filipino Language and Cultural School of Calgary,Philippine Cultural Center Foundation (Calgary),Private School,Filipino Language and Cultural School of Calgary,Bay 204 & 206 4656 Westwinds Dr NE,Calgary,AB,Junior High/Senior High,N,Provincial Data,1440,N,N,Y,Y,2019/03/03,T3J3Z5,1374646,-113.967800438249,51.1006469766456,"(51.1006469766456, -113.967800438249)"
Erin Woods,Calgary School District No. 19,Public School,Erin Woods School,25 Erin Park Drive SE,Calgary,AB,GRK-5,N,CBE Data,9269,Y,Y,N,N,2019/03/03,T2B2Z9,1382286,-113.965777384215,51.0226997246889,"(51.0226997246889, -113.965777384215)"
Buffalo Rubbing Stone,Calgary School District No. 19,Public School,Buffalo Rubbing Stone School,1308 Panatella Boulevard NW,Calgary,AB,GRK-4,N,CBE Data,2029,Y,Y,N,N,2019/03/03,T3K0X2,2366305,-114.087368506971,51.1683523998404,"(51.1683523998404, -114.087368506971)"
Bridlewood,Calgary School District No. 19,Public School,Bridlewood School,207 Bridleridge Way SW,Calgary,AB,GRK-6,N,CBE Data,1498,Y,Y,N,N,2019/03/03,T2Y0L4,1382189,-114.110661982344,50.9023836061216,"(50.9023836061216, -114.110661982344)"
Bishop Pinkham,Calgary School District No. 19,Public School,Bishop Pinkham School,3304 63 Avenue SW,Calgary,AB,GR7-9,N,CBE Data,9645,N,N,Y,N,2019/03/03,T3E5K1,1382910,-114.130699243964,50.997262984148,"(50.997262984148, -114.130699243964)"
Altadore,Calgary School District No. 19,Public School,Altadore School,4506 16 Street SW,Calgary,AB,GRK-6,N,CBE Data,9109,Y,Y,N,N,2019/03/03,T2T4H9,1382211,-114.099733248412,51.0140026625917,"(51.0140026625917, -114.099733248412)"
St. Martha,Calgary Roman Catholic Separate School District No. 1,Separate School,St. Martha School,6020 4 Ave NE,Calgary,AB,Elementary / Junior High,N,CSSD Data,8725,N,Y,Y,N,2019/03/03,T2A4B1,1382142,-113.945645417163,51.0565472970715,"(51.0565472970715, -113.945645417163)"
Vista Virtual School - Calgary Writing Centre,Pembina Hills Regional Division No. 7,Public School,Vista Virtual School - Calgary Writing Centre,341 - 58 Avenue SE,Calgary,AB,Unknown,N,Provincial Data,1558,N,N,N,N,2019/03/03,,1372550,-114.057659662866,51.0004854158414,"(51.0004854158414, -114.057659662866)"
Arbour Lake,Calgary School District No. 19,Public School,Arbour Lake Middle School,27 Arbour Crest Drive NW,Calgary,AB,GR5-9,N,CBE Data,1330,N,Y,Y,N,2019/03/03,T3G4H3,1383727,-114.209177233391,51.1346509922507,"(51.1346509922507, -114.209177233391)"
Eastside Christian Academy,Eastside City Church and Missionary Society,Private School,Eastside Christian Academy,1320 Abbeydale Drive SE,Calgary,AB,Elementary/Junior High,N,Provincial Data,478,N,Y,Y,N,2019/03/03,T2A7L8,1382139,-113.930220011344,51.0519523283879,"(51.0519523283879, -113.930220011344)"
Silver Springs,Calgary School District No. 19,Public School,Silver Springs School,7235 Silvermead Road NW,Calgary,AB,GRK-6,N,CBE Data,9256,Y,Y,N,N,2019/03/03,T3B3V1,1383143,-114.190825495673,51.1057102079948,"(51.1057102079948, -114.190825495673)"
Divine Mercy,Calgary Roman Catholic Separate School District No. 1,Separate School,Divine Mercy School,228 Mahogany Blvd. SE,Calgary,AB,Elementary,N,CSSD Data,2189,N,Y,N,N,2019/03/03,T3M1M5,2454686,-113.923957830893,50.9015566152245,"(50.9015566152245, -113.923957830893)"
Forest Lawn High,Calgary School District No. 19,Public School,Forest Lawn High School,1304 44 Street SE,Calgary,AB,GR10-12,N,CBE Data,9813,N,N,N,Y,2019/03/03,T2A1M8,1382833,-113.968949647814,51.0424030746718,"(51.0424030746718, -113.968949647814)"
Niitsitapi Learning Centre,Calgary School District No. 19,Public School,Niitsitapi Learning Centre,3743 Dover Ridge Drive SE,Calgary,AB,SPECIALTY,N,CBE Data,2123,N,N,N,N,2019/03/03,T2B2E1,1382921,-113.979337123795,51.0205887113254,"(51.0205887113254, -113.979337123795)"
Glenbrook,Calgary School District No. 19,Public School,Glenbrook School,4725 33 Avenue SW,Calgary,AB,GRK-6,N,CBE Data,9122,Y,Y,N,N,2019/03/03,T3E3V1,1382605,-114.154997492003,51.0235114024039,"(51.0235114024039, -114.154997492003)"
Bearspaw Christian School & College,Bearspaw Christian School Society,Private School,Bearspaw Christian School & College,15001 - 69 Street NW,Calgary,AB,Elementary/Junior High/Senior High,N,Provincial Data,9927,N,Y,Y,Y,2019/03/03,T3R1C5,1369136,-114.18951597667,51.1869736162904,"(51.1869736162904, -114.18951597667)"
Andrew Sibbald,Calgary School District No. 19,Public School,Andrew Sibbald School,1711 Lake Bonavista Drive SE,Calgary,AB,GRK-6,N,CBE Data,9336,Y,Y,N,N,2019/03/03,T2J2X9,1382262,-114.04087754809,50.9351785998057,"(50.9351785998057, -114.04087754809)"
Royal Oak,Calgary School District No. 19,Public School,Royal Oak School,9100 Royal Birch Boulevard NW,Calgary,AB,GRK-3,N,CBE Data,1519,Y,Y,N,N,2019/03/03,T3G5R8,1369226,-114.222069253635,51.1455727997941,"(51.1455727997941, -114.222069253635)"
Buchanan,Calgary School District No. 19,Public School,Buchanan School,3717 Centre Street North,Calgary,AB,GRK-6,N,CBE Data,9207,Y,Y,N,N,2019/03/03,T2E2Y2,1382346,-114.063147807014,51.0856296597672,"(51.0856296597672, -114.063147807014)"
Bowcroft,Calgary School District No. 19,Public School,Bowcroft School,3940 73 Street NW,Calgary,AB,GRK-6,N,CBE Data,9111,Y,Y,N,N,2019/03/03,T3B2L9,1382349,-114.19278889034,51.0875590584316,"(51.0875590584316, -114.19278889034)"
Dr. E.W. Coffin,Calgary School District No. 19,Public School,Dr. E. W. Coffin School,5615 Barrett Drive NW,Calgary,AB,GRK-6,N,CBE Data,9214,Y,Y,N,N,2019/03/03,T2L1W4,1383141,-114.134799127048,51.1037526325204,"(51.1037526325204, -114.134799127048)"
Wood's Homes,Calgary School District No. 19,Public School,Wood's Homes School,9400 48 Avenue NW,Calgary,AB,SPECIALTY,N,CBE Data,9035,N,N,N,N,2019/03/03,T3B2B2,1404525,-114.224228278548,51.0960980527308,"(51.0960980527308, -114.224228278548)"
St. John Paul II,Calgary Roman Catholic Separate School District No. 1,Separate School,St. John Paul II School,119 Castleridge Dr NE,Calgary,AB,Elementary,N,CSSD Data,8549,N,Y,N,N,2019/03/03,T3J1P6,1383230,-113.956199390614,51.107710228998,"(51.107710228998, -113.956199390614)"
St. Brigid,Calgary Roman Catholic Separate School District No. 1,Separate School,St. Brigid,730 Citadel Way NW,Calgary,AB,Elementary / Junior High,N,CSSD Data,1119,N,Y,Y,N,2019/03/03,T3G5S6,1383520,-114.187722932615,51.1463403219672,"(51.1463403219672, -114.187722932615)"
Crescent Heights High,Calgary School District No. 19,Public School,Crescent Heights High School,1019 1 Street NW,Calgary,AB,GR10-12,N,CBE Data,9815,N,N,N,Y,2019/03/03,T2M2S2,1381146,-114.066091420252,51.0614897990054,"(51.0614897990054, -114.066091420252)"
St. Angela,Calgary Roman Catholic Separate School District No. 1,Separate School,St. Angela Elementary,231 6 St NE,Calgary,AB,Elementary,N,CSSD Data,8510,N,Y,N,N,2019/03/03,T2E3Y1,1382141,-114.048819753366,51.0544219294691,"(51.0544219294691, -114.048819753366)"
Alex Munro,Calgary School District No. 19,Public School,Alex Munro School,427  78 Avenue NE,Calgary,AB,GRPRE-K-6,N,CBE Data,9261,Y,Y,N,N,2019/03/03,T2K0R9,1383295,-114.06139516455,51.1206473585467,"(51.1206473585467, -114.06139516455)"
St. John XXIII,Calgary Roman Catholic Separate School District No. 1,Separate School,St. John XXIII School,1420 Falconridge Dr NE,Calgary,AB,Elementary / Junior High,N,CSSD Data,8726,N,Y,Y,N,2019/03/03,T3J2C3,1383225,-113.938978053822,51.1014050227128,"(51.1014050227128, -113.938978053822)"
Renert,The Renert School Foundation,Private School,Renert School,14 Royal Vista Link NW,Calgary,AB,Elementary/Junior High/Senior High,N,Provincial Data,1747,N,Y,Y,Y,2019/03/03,T3R0K4,2260486,-114.202836499648,51.1518370164022,"(51.1518370164022, -114.202836499648)"
Menno Simons Christian,Palliser Regional Division No. 26,Public School,Menno Simons Christian School,7000 Elkton Drive S.W.,Calgary,AB,Elementary/Junior High,N,Provincial Data,9936,N,Y,Y,N,2019/03/03,T3H4Y7,1382206,-114.188500977629,51.0242003164094,"(51.0242003164094, -114.188500977629)"
St. Luke,Calgary Roman Catholic Separate School District No. 1,Separate School,St. Luke Bilingual Elementary School,1232 Northmount Dr NW,Calgary,AB,Elementary,N,CSSD Data,8521,N,Y,N,N,2019/03/03,T2L0E1,1383126,-114.12268683334,51.0908267229752,"(51.0908267229752, -114.12268683334)"
St. Monica,Calgary Roman Catholic Separate School District No. 1,Separate School,St. Monica School,235 18 Ave SW,Calgary,AB,Elementary / Junior High,N,CSSD Data,8530,N,Y,Y,N,2019/03/03,T2S0C2,1382532,-114.067814364036,51.0367697879724,"(51.0367697879724, -114.067814364036)"
Stanley Jones,Calgary School District No. 19,Public School,Stanley Jones School,950 6 Street NE,Calgary,AB,GRK-9,N,CBE Data,9233,Y,Y,Y,N,2019/03/03,T2E8M3,1381145,-114.047707291056,51.0599054062436,"(51.0599054062436, -114.047707291056)"
Lord Shaughnessy High,Calgary School District No. 19,Public School,CBe - Learn,2336 53 Avenue SW,Calgary,AB,GR10-12,N,CBE Data,1064,N,N,N,Y,2019/03/03,T3E1L2,1382201,-114.113927719107,51.0065169116875,"(51.0065169116875, -114.113927719107)"
Westmount Mid/High,Westmount Charter School Society,Charter,Westmount Mid/High School,2215 Uxbridge Dr. N.W.,Calgary,AB,Elementary/Junior High/Senior High,N,Provincial Data,6002,N,Y,Y,Y,2019/03/03,T2N4Y3,1401708,-114.132512792834,51.0710475941776,"(51.0710475941776, -114.132512792834)"
Canadian Montessori School North,The Canadian Montessori School Ltd.,Private School,Canadian Montessori School North,1112 - 70 Avenue S.W.,Calgary,AB,Unknown,N,Provincial Data,1685,N,N,N,N,2019/03/03,T2V0P6,1186607,-114.088262165573,50.9907447322797,"(50.9907447322797, -114.088262165573)"
West Island College,West Island College Society of Alberta,Private School,West Island College,7410 Blackfoot Trail S.E.,Calgary,AB,Junior High/Senior High,N,Provincial Data,9913,N,N,Y,Y,2019/03/03,T2H1M5,1005728,-114.052160403268,50.9871043780752,"(50.9871043780752, -114.052160403268)"
Calgary Chinese Private,The Calgary Chinese Public School Society,Private School,Calgary Chinese Private School,126 2nd Avenue S.W,Calgary,AB,Unknown,N,Provincial Data,9963,N,N,N,N,2019/03/03,T2P0B9,1362574,-114.064287928782,51.0516145904753,"(51.0516145904753, -114.064287928782)"
The Chinese Academy,The Chinese Academy Foundation,Private School,The Chinese Academy,"#191, 1518 Centre Street N.E.",Calgary,AB,Senior High,N,Provincial Data,13,N,N,N,Y,2019/03/03,T2K1C2,1383511,-114.070131165801,51.1127974410161,"(51.1127974410161, -114.070131165801)"
Ecole de la Rose Sauvage,The Southern Francophone Education Region No. 4,Francophone,Ecole de la Rose Sauvage,2512 - 4 Street N.W.,Calgary,AB,Junior High/Senior High,N,Provincial Data,9228,N,N,Y,Y,2019/03/03,,1383015,-114.070303407538,51.074844648813,"(51.074844648813, -114.070303407538)"
Colonel Macleod,Calgary School District No. 19,Public School,Colonel Macleod School,1610 6 Street NE,Calgary,AB,GR5-9,N,CBE Data,9620,N,Y,Y,N,2019/03/03,T2E3Y9,1523917,-114.047645375012,51.0661828160009,"(51.0661828160009, -114.047645375012)"
St. Vincent de Paul,Calgary Roman Catholic Separate School District No. 1,Separate School,St. Vincent De Paul Elementary Junior High School,4525 49 St NW,Calgary,AB,Elementary / Junior High,N,CSSD Data,8528,N,Y,Y,N,2019/03/03,T3A0K4,1383214,-114.15975104932,51.0931308849635,"(51.0931308849635, -114.15975104932)"
Mountain View Academy,Mountain View Academy Society,Private School,Mountain View Academy,3915 34 Street NE,Calgary,AB,Elementary/Junior High/Senior High,N,Provincial Data,308,N,Y,Y,Y,2019/03/03,T1Y6Z8,1374881,-113.986103948667,51.0884378013626,"(51.0884378013626, -113.986103948667)"
Eugene Coste,Calgary School District No. 19,Public School,Eugene Coste School,10 Hillgrove Crescent SW,Calgary,AB,GRK-5,N,CBE Data,9311,Y,Y,N,N,2019/03/03,T2V3K7,1523788,-114.086977789272,50.9678895839828,"(50.9678895839828, -114.086977789272)"
Sir James Lougheed,Calgary School District No. 19,Public School,All Boys Alternative Program,3519 36 Avenue SW,Calgary,AB,GRK-6,N,CBE Data,1579,Y,Y,N,N,2019/03/03,T3E1C2,1378411,-114.136225786072,51.0211797768022,"(51.0211797768022, -114.136225786072)"
Trust Treatment Centre,Calgary School District No. 19,Public School,Project Trust,2282 9 Street NW,Calgary,AB,SPECIALTY,N,CBE Data,9599,N,N,N,N,2019/03/03,T2M4P6,1141724,-114.082840334026,51.0720702151071,"(51.0720702151071, -114.082840334026)"
St. William,Calgary Roman Catholic Separate School District No. 1,Separate School,St. William School,11020 Fairmount Dr SE,Calgary,AB,Elementary,N,CSSD Data,8529,N,Y,N,N,2019/03/03,T2J0T1,1382589,-114.059261412779,50.953638002885,"(50.953638002885, -114.059261412779)"
Falconridge,Calgary School District No. 19,Public School,Falconridge School,1331 Falconridge Drive NE,Calgary,AB,GRPRE-K-6,N,CBE Data,9375,Y,Y,N,N,2019/03/03,T3J1T4,1383222,-113.945432580452,51.0993641423626,"(51.0993641423626, -113.945432580452)"
Copperfield,Calgary School District No. 19,Public School,Copperfield School,54 Copperstone Road SE,Calgary,AB,GRK-4,N,CBE Data,2086,Y,Y,N,N,2019/03/03,T2Z0G7,2397273,-113.928805946681,50.9148320379272,"(50.9148320379272, -113.928805946681)"
Blessed Cardinal Newman,Calgary Roman Catholic Separate School District No. 1,Separate School,Blessed Cardinal Newman,16201 McKenzie Lake Blvd SE,Calgary,AB,Elementary / Junior High,N,CSSD Data,8731,N,Y,Y,N,2019/03/03,T2Z2G7,1370398,-113.988858442093,50.9073393414865,"(50.9073393414865, -113.988858442093)"
West View,Calgary School District No. 19,Public School,West View School,12626 85 Street NW,Calgary,AB,SPECIALTY,N,CBE Data,9687,N,N,N,N,2019/03/03,T3R1J3,1557811,-114.208070483453,51.1655793907337,"(51.1655793907337, -114.208070483453)"
Nelson Mandela High,Calgary School District No. 19,Public School,Nelson Mandela High School,45 Saddletowne Circle NE,Calgary,AB,GR10-12,N,CBE Data,1989,N,N,N,Y,2019/03/03,T3J4W3,2326426,-113.948845710684,51.1219805650372,"(51.1219805650372, -113.948845710684)"
Aurora Learning Calgary,Aurora Learning Foundation (Calgary),Private School,Aurora Learning Calgary,#137 5305 McCall Way NE,Calgary,AB,Elementary/Junior High/Senior High,N,Provincial Data,1397,N,Y,Y,Y,2019/03/03,T2E7N7,2304641,-114.003034495146,51.1013393142261,"(51.1013393142261, -114.003034495146)"
Southwest Elementary Campus,Foundations for the Future Charter Academy Charter School Society,Charter,Southwest Elementary Campus,898 Sylvester Cres. SW,Calgary,AB,Elementary,N,Provincial Data,1352,N,Y,N,N,2019/03/03,T2W0R7,1382887,-114.082546602452,50.9589807243142,"(50.9589807243142, -114.082546602452)"
Manmeet Singh Bhullar,Calgary School District No. 19,Public School,Manmeet Singh Bhullar School,1027 Martindale Boulevard NE,Calgary,AB,GRK-6,N,CBE Data,2145,Y,Y,N,N,2019/03/03,T3J4Z1,2393006,-113.959422549941,51.1233068218433,"(51.1233068218433, -113.959422549941)"
Samuel W. Shaw,Calgary School District No. 19,Public School,Samuel W. Shaw School,115 Shannon Drive SW,Calgary,AB,GR5-9,N,CBE Data,1451,N,Y,Y,N,2019/03/03,T2Y0K6,1587356,-114.087375592858,50.9081321232495,"(50.9081321232495, -114.087375592858)"
"Hamptons, The",Calgary School District No. 19,Public School,The Hamptons School,10330 Hamptons Boulevard NW,Calgary,AB,GRK-4,N,CBE Data,387,Y,Y,N,N,2019/03/03,T3A6G2,1383519,-114.148506980646,51.1434457334959,"(51.1434457334959, -114.148506980646)"
W.O. Mitchell,Calgary School District No. 19,Public School,W.O. Mitchell School,511 Silvergrove Drive NW,Calgary,AB,GRK-6,N,CBE Data,9257,Y,Y,N,N,2019/03/03,T3B4R9,1378946,-114.194287480151,51.1136907741726,"(51.1136907741726, -114.194287480151)"
Calgary Girls',Calgary Girls' School Society,Charter,Calgary Girls' School,6304 Larkspur Way S.W.,Calgary,AB,Elementary/Junior High,N,Provincial Data,1128,N,Y,Y,N,2019/03/03,T3E5P7,1382200,-114.114753929533,50.9990770243395,"(50.9990770243395, -114.114753929533)"
Ernest Morrow,Calgary School District No. 19,Public School,Ernest Morrow School,1212 47 Street SE,Calgary,AB,GR6-9,N,CBE Data,9644,N,Y,Y,N,2019/03/03,T2A1R3,1382129,-113.964838666247,51.043384557615,"(51.043384557615, -113.964838666247)"
AADAC,Calgary School District No. 19,Public School,AADAC Youth Services,1005  17 Street NW,Calgary,AB,SPECIALTY,N,CBE Data,9573,N,N,N,N,2019/03/03,T2N2E5,1374397,-114.101691983212,51.0611053379559,"(51.0611053379559, -114.101691983212)"
Westmount Elementary,Westmount Charter School Society,Charter,Westmount Elementary School,728 - 32 Street NW,Calgary,AB,Elementary,N,Provincial Data,1580,N,Y,N,N,2019/03/03,T2N2V9,1381383,-114.131428374236,51.0581476202626,"(51.0581476202626, -114.131428374236)"
Holy Angels,Calgary Roman Catholic Separate School District No. 1,Separate School,Holy Angels School,275 Riverglen Dr SE,Calgary,AB,Elementary,N,CSSD Data,389,N,Y,N,N,2019/03/03,T2C3T5,1382636,-114.010017713955,50.974095342522,"(50.974095342522, -114.010017713955)"
Renfrew (Children's Village),Calgary School District No. 19,Public School,Children's Village School,1210 Russet Road NE,Calgary,AB,SPECIALTY,N,CBE Data,9014,N,N,N,N,2019/03/03,T2E5L5,1381396,-114.041964383575,51.0638687867665,"(51.0638687867665, -114.041964383575)"
St. John Bosco Private,Alberta Charitable Society of St. Pius X,Private School,St. John Bosco Private School,712 Fortalice Cres SE,Calgary,AB,Elementary/Junior High,N,Provincial Data,9966,N,Y,Y,N,2019/03/03,T2A2E1,1382136,-113.959439854811,51.0466000121922,"(51.0466000121922, -113.959439854811)"
Nose Creek,Calgary School District No. 19,Public School,Nose Creek School,135 Covepark Square NE,Calgary,AB,GR4-9,N,CBE Data,1674,N,Y,Y,N,2019/03/03,T3K5W9,1550793,-114.060699736927,51.1671495553814,"(51.1671495553814, -114.060699736927)"
H.D. Cartwright,Calgary School District No. 19,Public School,H. D. Cartwright School,5500 Dalhart Road NW,Calgary,AB,GR7-9,N,CBE Data,9660,N,N,Y,N,2019/03/03,T3A1V6,1384099,-114.161327376146,51.1126485404647,"(51.1126485404647, -114.161327376146)"
St. Augustine,Calgary Roman Catholic Separate School District No. 1,Separate School,St. Augustine Elementary Junior High School,7112 7 St SW,Calgary,AB,Elementary / Junior High,N,CSSD Data,8708,N,Y,Y,N,2019/03/03,T2V1E9,1382905,-114.080777130435,50.991113689145,"(50.991113689145, -114.080777130435)"
Janus Academy (Holy Cross Site),Janus Academy Society,Private School,Janus Academy (Holy Cross Site),8516 Athabasca Street SE,Calgary,AB,Elementary/Junior High/Senior High,N,Provincial Data,1323,N,Y,Y,Y,2019/03/03,T2H1S1,1375426,-114.056292872079,50.9774376971763,"(50.9774376971763, -114.056292872079)"
William Aberhart High,Calgary School District No. 19,Public School,William Aberhart High School,3009 Morley Trail NW,Calgary,AB,GR10-12,N,CBE Data,9829,N,N,N,Y,2019/03/03,T2M4G9,1382288,-114.115337479205,51.0786695096059,"(51.0786695096059, -114.115337479205)"
John Ware,Calgary School District No. 19,Public School,John Ware School,10020 19 Street SW,Calgary,AB,GR7-9,N,CBE Data,9603,N,N,Y,N,2019/03/03,T2V1R2,1382592,-114.105304804535,50.9636547674574,"(50.9636547674574, -114.105304804535)"
Blessed Marie-Rose,Calgary Roman Catholic Separate School District No. 1,Separate School,Blessed Marie-Rose,999 Sherwood Blvd NW,Calgary,AB,Elementary / Junior High,N,CSSD Data,2195,N,Y,Y,N,2019/03/03,T3R1M9,2445030,-114.148323737269,51.1598895438963,"(51.1598895438963, -114.148323737269)"
The Third Academy,Third Academy International Ltd.,Private School,The Third Academy,"3,510-77th Ave SE",Calgary,AB,Elementary,N,Provincial Data,31,N,Y,N,N,2019/03/03,T2H1C3,1524220,-114.051459480268,50.9851220757189,"(50.9851220757189, -114.051459480268)"
Christine Meikle,Calgary School District No. 19,Public School,Christine Meikle School,3525 50 Street NW,Calgary,AB,SPECIALTY,N,CBE Data,9037,N,N,N,N,2019/03/03,T3A2Y5,2365264,-114.161065711504,51.0845446949492,"(51.0845446949492, -114.161065711504)"
Renfrew Educational Services - Child Development Centre,Renfrew Educational Services Society,Private School,Renfrew Educational Services - Child Development Centre,2050 - 21 Street N.E.,Calgary,AB,Unknown,N,Provincial Data,280,N,N,N,N,2019/03/03,T3B2X9,1380513,-114.143929083517,51.0747652331191,"(51.0747652331191, -114.143929083517)"
Catherine Nichols Gunn,Calgary School District No. 19,Public School,Catherine Nichols Gunn School,6625 4 Street NE,Calgary,AB,GRK-6,N,CBE Data,9232,Y,Y,N,N,2019/03/03,T2K5C7,1378455,-114.057895039207,51.1116437154434,"(51.1116437154434, -114.057895039207)"
Our Lady of Peace,Calgary Roman Catholic Separate School District No. 1,Separate School,Our Lady of Peace Elementary Junior High School,14826 Millrise Hill SW,Calgary,AB,Elementary / Junior High,N,CSSD Data,8732,N,Y,Y,N,2019/03/03,T2Y2B4,1382578,-114.087705715074,50.918467777154,"(50.918467777154, -114.087705715074)"
Chinook Winds Adventist Academy,Alberta Conference of 7th Day Adventist Church,Private School,Chinook Winds Adventist Academy,10101 - 2nd Avenue S.W.,Calgary,AB,Elementary/Junior High/Senior High,N,Provincial Data,9916,N,Y,Y,Y,2019/03/03,T3B5T2,1376232,-114.233266189099,51.079234206464,"(51.079234206464, -114.233266189099)"
Douglas Harkness,Calgary School District No. 19,Public School,Douglas Harkness School,6203 24 Avenue NE,Calgary,AB,GRPRE-K-6,N,CBE Data,9347,Y,Y,N,N,2019/03/03,T1Y2C5,1383010,-113.94604456169,51.0738434802924,"(51.0738434802924, -113.94604456169)"
Belvedere Parkway,Calgary School District No. 19,Public School,Belvedere Parkway School,4631 85 Street NW,Calgary,AB,GRK-6,N,CBE Data,9110,Y,Y,N,N,2019/03/03,T3B2R8,1384089,-114.21155915983,51.0927168241052,"(51.0927168241052, -114.21155915983)"
St. Patrick,Calgary Roman Catholic Separate School District No. 1,Separate School,St. Patrick School,6006 Rundlehorn Dr NE,Calgary,AB,Elementary,N,CSSD Data,8507,N,Y,N,N,2019/03/03,T1Y2X1,1383007,-113.946702768693,51.0719899543668,"(51.0719899543668, -113.946702768693)"
Monsignor A.J. Hetherington,Calgary Roman Catholic Separate School District No. 1,Separate School,Monsignor A. J. Hetherington Elementary School,4 Coral Springs Blvd NE,Calgary,AB,Elementary,N,CSSD Data,8557,N,Y,N,N,2019/03/03,T3J3J3,1383223,-113.934047611089,51.0995523031157,"(51.0995523031157, -113.934047611089)"
Apostles of Jesus,Calgary Roman Catholic Separate School District No. 1,Separate School,Apostles of Jesus,15 Skyview Ranch Street NE,Calgary,AB,Elementary / Junior High,N,CSSD Data,2155,N,Y,Y,N,2019/03/03,T3N1H6,2382713,-113.956513068523,51.1584173114354,"(51.1584173114354, -113.956513068523)"
West Springs,Calgary School District No. 19,Public School,West Springs School,8999 Wentworth Avenue SW,Calgary,AB,GRK-4,N,CBE Data,1521,Y,Y,N,N,2019/03/03,T3H0P7,1377130,-114.216749847645,51.0584377785281,"(51.0584377785281, -114.216749847645)"
Huntington Hills,Calgary School District No. 19,Public School,Huntington Hills School,820 64 Avenue NW,Calgary,AB,GRK-6,N,CBE Data,9219,Y,Y,N,N,2019/03/03,T2K0M5,1383510,-114.077456859477,51.1122089821832,"(51.1122089821832, -114.077456859477)"
Maple Ridge,Calgary School District No. 19,Public School,Maple Ridge School,10203 Maplemont Road SE,Calgary,AB,GRK-4,N,CBE Data,9321,Y,Y,N,N,2019/03/03,T2J1W3,1382591,-114.041958799033,50.9618905218363,"(50.9618905218363, -114.041958799033)"
St. Rose of Lima,Calgary Roman Catholic Separate School District No. 1,Separate School,St. Rose of Lima Junior High School,2419 50 St NE,Calgary,AB,Elementary / Junior High,N,CSSD Data,8722,N,Y,Y,N,2019/03/03,T1Y1Z5,1383019,-113.962278881211,51.0758005718372,"(51.0758005718372, -113.962278881211)"
Lake Bonavista,Calgary School District No. 19,Public School,Lake Bonavista School,1015 120 Avenue SE,Calgary,AB,GRK-6,N,CBE Data,9334,Y,Y,N,N,2019/03/03,T2J2L1,1382266,-114.040923821551,50.9445409784263,"(50.9445409784263, -114.040923821551)"
St. Sylvester,Calgary Roman Catholic Separate School District No. 1,Separate School,St. Sylvester School,7318 Silver Springs Blvd NW,Calgary,AB,Elementary,N,CSSD Data,8537,N,Y,N,N,2019/03/03,T3B4N1,1383144,-114.194271396104,51.1092617478501,"(51.1092617478501, -114.194271396104)"
St. Francis High,Calgary Roman Catholic Separate School District No. 1,Separate School,St. Francis High School,877 Northmount Dr NW,Calgary,AB,Senior High,N,CSSD Data,8902,N,N,N,Y,2019/03/03,,1382293,-114.102407547848,51.0845065831207,"(51.0845065831207, -114.102407547848)"
Richmond,Calgary School District No. 19,Public School,Richmond School,2701 22 Street SW,Calgary,AB,GRK-6,N,CBE Data,9100,Y,Y,N,N,2019/03/03,T2T5G5,1000945,-114.115038640706,51.0301327098832,"(51.0301327098832, -114.115038640706)"
Somerset,Calgary School District No. 19,Public School,Somerset School,150 Somerset Manor SW,Calgary,AB,GRK-5,N,CBE Data,1099,Y,Y,N,N,2019/03/03,T2Y4S2,1382186,-114.084885124491,50.8974058284541,"(50.8974058284541, -114.084885124491)"
Alberta Chung Wah,Alberta Chung Wah School Society,Private School,Alberta Chung Wah School,"#270, 328 Centre Street S.E.",Calgary,AB,Senior High,N,Provincial Data,1020,N,N,N,Y,2019/03/03,T2G4X6,1005440,-114.061738312975,51.0495649619006,"(51.0495649619006, -114.061738312975)"
Mother Mary Greene,Calgary Roman Catholic Separate School District No. 1,Separate School,Mother Mary Greene School,115 Edenwold Dr NW,Calgary,AB,Elementary,N,CSSD Data,8553,N,Y,N,N,2019/03/03,T3A3S8,1369124,-114.139238562065,51.1243068012465,"(51.1243068012465, -114.139238562065)"
Cecil Swanson,Calgary School District No. 19,Public School,Cecil Swanson School,4820 Rundlewood Drive NE,Calgary,AB,GRK-6,N,CBE Data,9373,Y,Y,N,N,2019/03/03,T1Y5V9,1523791,-113.967543129312,51.0741821887835,"(51.0741821887835, -113.967543129312)"
Glenmeadows,Calgary School District No. 19,Public School,Glenmeadows School,4931 Grove Hill Road SW,Calgary,AB,GRK-6,N,CBE Data,9123,Y,Y,N,N,2019/03/03,T3E4G4,1379112,-114.158929057538,51.0348617985998,"(51.0348617985998, -114.158929057538)"
Calgary Waldorf,Calgary Waldorf School Society,Private School,Calgary Waldorf School,515 Cougar Ridge Drive S.W.,Calgary,AB,Elementary/Junior High,N,Provincial Data,9949,N,Y,Y,N,2019/03/03,T3H5G9,1383008,-114.218326240149,51.0723493859737,"(51.0723493859737, -114.218326240149)"
Janet Johnstone,Calgary School District No. 19,Public School,Janet Johnstone School,224 Shawnessy Drive SW,Calgary,AB,GRK-4,N,CBE Data,9270,Y,Y,N,N,2019/03/03,T2Y1M1,1382576,-114.080086009229,50.9093693139945,"(50.9093693139945, -114.080086009229)"
Lord Shaughnessy High,Calgary School District No. 19,Public School,CLS Lord Shaughnessy Writing Centre,2336 53 Avenue SW,Calgary,AB,GR10-12,N,CBE Data,2247,N,N,N,Y,2019/03/03,T3E1L2,1382201,-114.113927719107,51.0065169116875,"(51.0065169116875, -114.113927719107)"
Asasa Academy,Asasa Learning,Private School,Asasa Academy,599 Northmount Drive N.W.,Calgary,AB,Elementary,N,Provincial Data,1623,N,Y,N,N,2019/03/03,T2K3J6,1374276,-114.088022122172,51.0871732920148,"(51.0871732920148, -114.088022122172)"
Evergreen,Calgary School District No. 19,Public School,Evergreen School,367 Everstone Drive SW,Calgary,AB,GRK-3,N,CBE Data,1500,Y,Y,N,N,2019/03/03,T2Y0L3,1382258,-114.106519836863,50.9169239358226,"(50.9169239358226, -114.106519836863)"
Sacred Heart,Calgary Roman Catholic Separate School District No. 1,Separate School,Sacred Heart Elementary School,1312 15 St SW,Calgary,AB,Elementary,N,CSSD Data,8705,N,Y,N,N,2019/03/03,T3C0T6,1382544,-114.0966365484,51.0409204820138,"(51.0409204820138, -114.0966365484)"
Master's Academy,Palliser Regional Division No. 26,Public School,Master's Academy,4414 Crowchild Trail S.W.,Calgary,AB,Elementary,N,Provincial Data,30,N,Y,N,N,2019/03/03,T2T5J4,1382281,-114.11654760101,51.0153129626849,"(51.0153129626849, -114.11654760101)"
SAIT Polytechnic,,Post Secondary,,,Calgary,AB,,Y,Post Secondary Data,,N,N,N,N,2019/03/03,,1382335,-114.089272415998,51.0645150986753,"(51.0645150986753, -114.089272415998)"
Corpus Christi,Calgary Roman Catholic Separate School District No. 1,Separate School,Corpus Christi School,5607 Thornton Rd NW,Calgary,AB,Elementary,N,CSSD Data,8501,N,Y,N,N,2019/03/03,T2K3C1,1384094,-114.068031828864,51.1015969371731,"(51.1015969371731, -114.068031828864)"
Chinook Park,Calgary School District No. 19,Public School,Chinook Park School,1312 75 Avenue SW,Calgary,AB,GRK-6,N,CBE Data,9306,Y,Y,N,N,2019/03/03,T2V0S6,1382904,-114.089370333434,50.9864477689043,"(50.9864477689043, -114.089370333434)"
North Haven,Calgary School District No. 19,Public School,North Haven School,4922 North Haven Drive NW,Calgary,AB,GRPRE-K-6,N,CBE Data,9225,Y,Y,N,N,2019/03/03,T2K2K2,1383138,-114.086612787435,51.0975090770413,"(51.0975090770413, -114.086612787435)"
Renfrew Educational Services-Janice McTighe Centre,Renfrew Educational Services Society,Private School,Renfrew Educational Services-Janice McTighe Centre,2050 - 21 Street N.E.,Calgary,AB,Elementary,N,Provincial Data,249,N,Y,N,N,2019/03/03,T2E6S5,1381134,-114.008291667844,51.0696209641237,"(51.0696209641237, -114.008291667844)"
Le Roi Daniels,Calgary School District No. 19,Public School,Le Roi Daniels School,47 Fyffe Road SE,Calgary,AB,GRK-3,N,CBE Data,9320,Y,Y,N,N,2019/03/03,T2H1B9,1382901,-114.057955556407,50.9838583615036,"(50.9838583615036, -114.057955556407)"
O.S. Geiger,Calgary School District No. 19,Public School,O.S. Geiger School,100 Castlebrook Drive NE,Calgary,AB,GRPRE-K-6,N,CBE Data,9271,Y,Y,N,N,2019/03/03,T3J2J4,1384095,-113.961540505795,51.1048865124156,"(51.1048865124156, -113.961540505795)"
Christ the King,Calgary Roman Catholic Separate School District No. 1,Separate School,Christ the King Catholic School,333 Cranston Way SE,Calgary,AB,Elementary / Junior High,N,CSSD Data,1484,N,Y,Y,N,2019/03/03,T3M1K6,1382185,-113.975970276487,50.8878369200581,"(50.8878369200581, -113.975970276487)"
Delta West Academy,Delta West Academy Society,Private School,Delta West Academy,414 - 11A Street N.E.,Calgary,AB,Elementary/Junior High/Senior High,N,Provincial Data,9972,N,Y,Y,Y,2019/03/03,T2E4P3,1000916,-114.034624896863,51.0551076760877,"(51.0551076760877, -114.034624896863)"
Mayland Heights,Calgary School District No. 19,Public School,Mayland Heights School,2324 Maunsell Drive NE,Calgary,AB,GRK-6,N,CBE Data,9223,Y,Y,N,N,2019/03/03,T2E6A2,1381144,-114.007292770186,51.0589518131812,"(51.0589518131812, -114.007292770186)"
Brentwood,Calgary School District No. 19,Public School,Brentwood School,1231 Northmount Drive NW,Calgary,AB,GRK-5,N,CBE Data,9204,Y,Y,N,N,2019/03/03,T2L0C9,1384057,-114.123857993878,51.0904894508588,"(51.0904894508588, -114.123857993878)"
Annie Gale,Calgary School District No. 19,Public School,Annie Gale School,577 Whiteridge Way NE,Calgary,AB,GR6-9,N,CBE Data,9686,N,Y,Y,N,2019/03/03,T1Y4S8,1383125,-113.968942838186,51.0890726246707,"(51.0890726246707, -113.968942838186)"
Connaught,Calgary School District No. 19,Public School,Connaught School,1121 12 Avenue SW,Calgary,AB,GRK-6,N,CBE Data,9114,Y,Y,N,N,2019/03/03,T2R0J8,1371115,-114.087716154584,51.0415326787271,"(51.0415326787271, -114.087716154584)"
Cambrian Heights,Calgary School District No. 19,Public School,Cambrian Heights School,640 Northmount Drive NW,Calgary,AB,GRK-6,N,CBE Data,9208,Y,Y,N,N,2019/03/03,T2K3J5,1382294,-114.087974384129,51.0853517491053,"(51.0853517491053, -114.087974384129)"
Monsignor E.L. Doyle,Calgary Roman Catholic Separate School District No. 1,Separate School,Monsignor E. L. Doyle Elementary School,8887 Scurfield Dr NW,Calgary,AB,Elementary,N,CSSD Data,8555,N,Y,N,N,2019/03/03,T3L1H6,1383516,-114.216424423644,51.1220284036888,"(51.1220284036888, -114.216424423644)"
Dalhousie,Calgary School District No. 19,Public School,Dalhousie School,4440 Dallyn Street NW,Calgary,AB,GRK-5,N,CBE Data,9240,Y,Y,N,N,2019/03/03,T3A1K3,1384096,-114.151378465006,51.1065269342039,"(51.1065269342039, -114.151378465006)"
Holy Family,Calgary Roman Catholic Separate School District No. 1,Separate School,Holy Family School,904 32 St SE,Calgary,AB,Elementary,N,CSSD Data,8503,N,Y,N,N,2019/03/03,T2A0Z1,1382133,-113.987863828179,51.0455361643882,"(51.0455361643882, -113.987863828179)"
Dr. Gladys McKelvie Egbert,Calgary School District No. 19,Public School,Dr. Gladys McKelvie Egbert,6033 Madigan Drive NE,Calgary,AB,GR6-9,N,CBE Data,9350,N,Y,Y,N,2019/03/03,T2A5G9,1381143,-113.941529090033,51.0588922137337,"(51.0588922137337, -113.941529090033)"
St. Boniface,Calgary Roman Catholic Separate School District No. 1,Separate School,St. Boniface Elementary School,927 Lake Sylvan Dr SE,Calgary,AB,Elementary,N,CSSD Data,8532,N,Y,N,N,2019/03/03,T2J2P8,1382586,-114.042341285768,50.9430637075529,"(50.9430637075529, -114.042341285768)"
"Almadina Language Charter Academy, Ogden Campus",Almadina School Society,Charter,"Almadina Language Charter Academy, Ogden Campus",1919 - 76 Ave SE,Calgary,AB,Elementary/Junior High,N,Provincial Data,1725,N,Y,Y,N,2019/03/03,T2C0G8,1382903,-114.012122917572,50.9844965845085,"(50.9844965845085, -114.012122917572)"
Dr. Oakley,Calgary School District No. 19,Public School,Dr. Oakley School,3904 20 Street SW,Calgary,AB,SPECIALTY,N,CBE Data,9630,N,N,N,N,2019/03/03,T2T4Z9,1382285,-114.108435413869,51.0192722131829,"(51.0192722131829, -114.108435413869)"
Renfrew Thomas W. Buchanan Centre,Renfrew Educational Services Society,Private School,Renfrew Thomas W. Buchanan Centre,2050 - 21 Street N.E.,Calgary,AB,Elementary,N,Provincial Data,250,N,Y,N,N,2019/03/03,T2X3V4,1370835,-114.055742299396,50.9022061689607,"(50.9022061689607, -114.055742299396)"
"Almadina Language Charter Academy, Mountain View Campus",Almadina School Society,Charter,"Almadina Language Charter Academy, Mountain View Campus",2031 Sable Drive S.E.,Calgary,AB,Elementary,N,Provincial Data,6007,N,Y,N,N,2019/03/03,T2B1R9,1382521,-113.986831020306,51.0322004569015,"(51.0322004569015, -113.986831020306)"
Monterey Park,Calgary School District No. 19,Public School,Monterey Park School,7400 California Boulevard NE,Calgary,AB,GRK-6,N,CBE Data,538,Y,Y,N,N,2019/03/03,T1Y6R2,1382338,-113.930482887195,51.0774246581365,"(51.0774246581365, -113.930482887195)"
Colonel J. Fred Scott,Calgary School District No. 19,Public School,Colonel J. Fred Scott School,171 Whitehorn Road NE,Calgary,AB,GRK-6,N,CBE Data,9348,Y,Y,N,N,2019/03/03,T1Y3C4,1382350,-113.968164442842,51.0877669036887,"(51.0877669036887, -113.968164442842)"
Hugh A. Bennett,Calgary School District No. 19,Public School,Hugh A. Bennett School,40 Saddlelake Way  NE,Calgary,AB,GRK-4,N,CBE Data,2056,Y,Y,N,N,2019/03/03,T3J0V1,2423257,-113.928548317078,51.1316839550676,"(51.1316839550676, -113.928548317078)"
Rosscarrock,Calgary School District No. 19,Public School,Rosscarrock School,1406 40 Street SW,Calgary,AB,GRK-6,N,CBE Data,9133,Y,Y,N,N,2019/03/03,T3C1W7,1382823,-114.144782231458,51.0412163830986,"(51.0412163830986, -114.144782231458)"
Elbow Park,Calgary School District No. 19,Public School,Elbow Park School,721 - 38 Avenue SW,Calgary,AB,GRK-6,N,CBE Data,9119,Y,Y,N,N,2019/03/03,T2T2H8,1382920,-114.082197041447,51.0195774733958,"(51.0195774733958, -114.082197041447)"
Killarney,Calgary School District No. 19,Public School,Killarney School,3008 33 Street SW,Calgary,AB,GRK-6,N,CBE Data,9104,Y,Y,N,N,2019/03/03,T3E2T9,1382508,-114.134729311146,51.0281934211269,"(51.0281934211269, -114.134729311146)"
,Calgary School District No. 19,Public School,Juno Beach Academy of Canadian Studies,,Calgary,AB,,N,CBE Data,1125,N,N,N,N,2019/03/03,T2H1Z2,1382500,-114.065062483284,50.9753211185672,"(50.9753211185672, -114.065062483284)"
Sir Winston Churchill High,Calgary School District No. 19,Public School,Sir Winston Churchill High School,5220 Northland Drive NW,Calgary,AB,GR10-12,N,CBE Data,9857,N,N,N,Y,2019/03/03,T2L2J6,1383224,-114.139990025515,51.1001126954531,"(51.1001126954531, -114.139990025515)"
Saddle Ridge,Calgary School District No. 19,Public School,Saddle Ridge School,368 Saddlecrest Boulevard NE,Calgary,AB,GRK-4,N,CBE Data,1520,Y,Y,N,N,2019/03/03,T3J5L6,1369491,-113.936879642314,51.1368825751514,"(51.1368825751514, -113.936879642314)"
St. Joan of Arc,Calgary Roman Catholic Separate School District No. 1,Separate School,St. Joan of Arc Elementary/Junior High School,7970 Wentworth Dr SW,Calgary,AB,Elementary / Junior High,N,CSSD Data,1338,N,Y,Y,N,2019/03/03,T3H0K2,1537005,-114.207240351839,51.0571247372523,"(51.0571247372523, -114.207240351839)"
Tom Baines,Calgary School District No. 19,Public School,Tom Baines School,250 Edgepark Boulevard NW,Calgary,AB,GR6-9,N,CBE Data,9690,N,Y,Y,N,2019/03/03,T3A3S2,1383297,-114.156993534133,51.1335143950548,"(51.1335143950548, -114.156993534133)"
Mount Royal,Calgary School District No. 19,Public School,Mount Royal School,2234 14 Street SW,Calgary,AB,GR7-9,N,CBE Data,9639,N,N,Y,N,2019/03/03,T2T3T3,1382526,-114.09391017235,51.0347223434342,"(51.0347223434342, -114.09391017235)"
St. Elizabeth Seton,Calgary Roman Catholic Separate School District No. 1,Separate School,St. Elizabeth Seton,10845 Hidden Valley Dr NW,Calgary,AB,Elementary / Junior High,N,CSSD Data,588,N,Y,Y,N,2019/03/03,T3A6K3,1524239,-114.110436391107,51.1511018316824,"(51.1511018316824, -114.110436391107)"
Father Whelihan,Calgary Roman Catholic Separate School District No. 1,Separate School,Father James Whelihan,70 Sunmills Dr SE,Calgary,AB,Elementary / Junior High,N,CSSD Data,8729,N,Y,Y,N,2019/03/03,T2X2R5,1382251,-114.047019408476,50.9045243486936,"(50.9045243486936, -114.047019408476)"
R.T. Alderman,Calgary School District No. 19,Public School,R. T. Alderman School,725 Mapleton Drive SE,Calgary,AB,GR5-9,N,CBE Data,9653,N,Y,Y,N,2019/03/03,T2J1S1,1382888,-114.044587908456,50.9611593777222,"(50.9611593777222, -114.044587908456)"
St. James,Calgary Roman Catholic Separate School District No. 1,Separate School,St. James Elementary Junior High School,2227 58 Ave SW,Calgary,AB,Elementary / Junior High,N,CSSD Data,8712,N,Y,Y,N,2019/03/03,T3E1N6,1382913,-114.113668410752,51.0011419623501,"(51.0011419623501, -114.113668410752)"
Access International College (Calgary) Inc.,Access International College (Calgary) Incorporated,Private School,Access International College (Calgary) Inc.,B1 - 2451 Dieppe Avenue S.W. Box 100,Calgary,AB,Senior High,N,Provincial Data,1271,N,N,N,Y,2019/03/03,,1379081,-114.119038751587,51.019286584222,"(51.019286584222, -114.119038751587)"
St. Jean Brebeuf,Calgary Roman Catholic Separate School District No. 1,Separate School,St. Jean Brebeuf School,5030 Northland Dr NW,Calgary,AB,Junior High,N,CSSD Data,8703,N,N,Y,N,2019/03/03,T2L2J6,1369132,-114.140228920585,51.0978933839348,"(51.0978933839348, -114.140228920585)"
Valley View,Calgary School District No. 19,Public School,Valley View School,4105 26 Avenue SE,Calgary,AB,GRK-5,N,CBE Data,9330,Y,Y,N,N,2019/03/03,T2B0C6,1382515,-113.975277829578,51.0300545572805,"(51.0300545572805, -113.975277829578)"
Palliser Beyond Borders at Calgary,Palliser Regional Division No. 26,Public School,Palliser Beyond Borders at Calgary,Suite 120 2635 - 37 Avenue,Calgary,AB,Senior High,N,Provincial Data,2000,N,N,N,Y,2019/03/03,T1Y5Z6,1374023,-113.999042328312,51.0861144274715,"(51.0861144274715, -113.999042328312)"
Thorncliffe,Calgary School District No. 19,Public School,Thorncliffe School,5646 Thornton Road NW,Calgary,AB,GRK-6,N,CBE Data,9235,Y,Y,N,N,2019/03/03,T2K3B9,1383226,-114.067096612532,51.1023231208708,"(51.1023231208708, -114.067096612532)"
Prince of Peace,Calgary Roman Catholic Separate School District No. 1,Separate School,Prince of Peace School,43 Auburn Meadows Blvd SE,Calgary,AB,Elementary / Junior High,N,CSSD Data,2080,N,Y,Y,N,2019/03/03,T3M2C9,2357503,-113.949842077329,50.8932638681309,"(50.8932638681309, -113.949842077329)"
St. Kateri Tekakwitha,Calgary Roman Catholic Separate School District No. 1,Separate School,St. Kateri Tekakwitha School,1005 Abbotsford Dr NE,Calgary,AB,Elementary,N,CSSD Data,8552,N,Y,N,N,2019/03/03,T2A7N5,1381388,-113.927660834885,51.0618537975427,"(51.0618537975427, -113.927660834885)"
Little Angels,Asasa Learning,Private School,Little Angels,599 Northmount Dr NW,Calgary,AB,Unknown,N,Provincial Data,1476,N,N,N,N,2019/03/03,T2K3J6,1374276,-114.088022122172,51.0871732920148,"(51.0871732920148, -114.088022122172)"
Fish Creek,Calgary School District No. 19,Public School,Fish Creek School,1039 Suncastle Drive SE,Calgary,AB,GRK-6,N,CBE Data,9384,Y,Y,N,N,2019/03/03,T2X2Z1,1382187,-114.032811389487,50.9015051387272,"(50.9015051387272, -114.032811389487)"
Varsity Acres,Calgary School District No. 19,Public School,Varsity Acres School,4255 40 Street NW,Calgary,AB,GRK-6,N,CBE Data,9238,Y,Y,N,N,2019/03/03,T3A0H7,1383570,-114.148218247273,51.0910143926129,"(51.0910143926129, -114.148218247273)"
Calgary Quest,Calgary Quest Children's Society,Private School,Calgary Quest School,3405 Spruce Drive S.W. c/o Spruce Cliff Elementary,Calgary,AB,Elementary/Junior High/Senior High,N,Provincial Data,5398,N,Y,Y,Y,2019/03/03,T3C0A5,1382146,-114.136638662258,51.0497214962546,"(51.0497214962546, -114.136638662258)"
Foothills Academy,Foothills Academy Society,Private School,Foothills Academy,745 - 37 Street N.W.,Calgary,AB,Elementary/Junior High/Senior High,N,Provincial Data,9917,N,Y,Y,Y,2019/03/03,T2N4T1,1005422,-114.14230655126,51.0640721599872,"(51.0640721599872, -114.14230655126)"
Montessori School of Calgary,Montessori School of Calgary,Private School,Montessori School of Calgary,2201 Cliff Street S.W.,Calgary,AB,Elementary,N,Provincial Data,254,N,Y,N,N,2019/03/03,T2S2G4,1000958,-114.076077635662,51.0333610156101,"(51.0333610156101, -114.076077635662)"
Edgemont,Calgary School District No. 19,Public School,Edgemont School,55 Edgevalley Circle NW,Calgary,AB,GRK-5,N,CBE Data,9379,Y,Y,N,N,2019/03/03,T3A4X1,1383683,-114.143578510833,51.1288886732988,"(51.1288886732988, -114.143578510833)"
School of East Indian Languages and Performing Arts,School of East Indian Languages and Performing Arts of Calgary,Private School,School of East Indian Languages and Performing Arts,376 Silverado Boulevard SW,Calgary,AB,Unknown,N,Provincial Data,1750,N,N,N,N,2019/03/03,T2X0N9,1010066,-114.087545377277,50.88374151674,"(50.88374151674, -114.087545377277)"
Ecole Terre des Jeunes,The Southern Francophone Education Region No. 4,Francophone,Ecole Terre des Jeunes,3720 - 42 Street NW,Calgary,AB,Elementary,N,Provincial Data,1364,N,Y,N,N,2019/03/03,T3A0C6,1382344,-114.149955385553,51.0853177109749,"(51.0853177109749, -114.149955385553)"
Vista Heights,Calgary School District No. 19,Public School,Vista Heights School,2411 Vermillion Street NE,Calgary,AB,GRK-6,N,CBE Data,9239,Y,Y,N,N,2019/03/03,T2E6J3,1376033,-114.017073569568,51.0738872389569,"(51.0738872389569, -114.017073569568)"
Patrick Airlie,Calgary School District No. 19,Public School,Patrick Airlie School,1520 39 Street SE,Calgary,AB,GRK-5,N,CBE Data,9327,Y,Y,N,N,2019/03/03,T2A1H9,1382540,-113.976783851469,51.0399113879906,"(51.0399113879906, -113.976783851469)"
Crossing Park,Calgary School District No. 19,Public School,Crossing Park School,500 Martindale Boulevard NE,Calgary,AB,GRK-9,N,CBE Data,536,Y,Y,Y,N,2019/03/03,T3J4W8,1383512,-113.966323698203,51.1156922201425,"(51.1156922201425, -113.966323698203)"
Terry Fox,Calgary School District No. 19,Public School,Terry Fox School,139 Falshire Drive NE,Calgary,AB,GR7-9,N,CBE Data,9689,N,N,Y,N,2019/03/03,T3J1P7,1383228,-113.945103989409,51.1046569110333,"(51.1046569110333, -113.945103989409)"
St. Peter,Calgary Roman Catholic Separate School District No. 1,Separate School,St. Peter Elementary School,720 58 St SE,Calgary,AB,Elementary,N,CSSD Data,8543,N,Y,N,N,2019/03/03,T2A5L9,1382842,-113.949107003872,51.0461850401333,"(51.0461850401333, -113.949107003872)"
Grant MacEwan,Calgary School District No. 19,Public School,Grant MacEwan School,180 Falshire Drive NE,Calgary,AB,GRK-6,N,CBE Data,9378,Y,Y,N,N,2019/03/03,T3J3A5,1383229,-113.942950314013,51.1064276203887,"(51.1064276203887, -113.942950314013)"
Calgary Arts Academy,Calgary Arts Academy Society,Charter,Calgary Arts Academy,640 14th Avenue S.E.,Calgary,AB,Elementary/Junior High,N,Provincial Data,1126,N,Y,Y,N,2019/03/03,T2G1E8,2328062,-114.049242211701,51.0394019786634,"(51.0394019786634, -114.049242211701)"
St. Rupert,Calgary Roman Catholic Separate School District No. 1,Separate School,St. Rupert School,111 Rundlehill Dr NE,Calgary,AB,Elementary,N,CSSD Data,8548,N,Y,N,N,2019/03/03,T1Y2W9,1383023,-113.97052825761,51.0768976172906,"(51.0768976172906, -113.97052825761)"
Mount Royal University - Holy Cross Campus,,Post Secondary,,,Calgary,AB,,Y,Post Secondary Data,,N,N,N,N,2019/03/03,T2S3C3,1557837,-114.067081193902,51.0324334909665,"(51.0324334909665, -114.067081193902)"
Thomas B. Riley,Calgary School District No. 19,Public School,Thomas B Riley School,3915 69 Street NW,Calgary,AB,GR6-9,N,CBE Data,9611,N,Y,Y,N,2019/03/03,T3B2J9,1383121,-114.189051595563,51.0875291683988,"(51.0875291683988, -114.189051595563)"
St. Gregory,Calgary Roman Catholic Separate School District No. 1,Separate School,St. Gregory School,5340 26 Ave SW,Calgary,AB,Elementary / Junior High,N,CSSD Data,8710,N,Y,Y,N,2019/03/03,T3E0R6,1382519,-114.160473741521,51.0311374540219,"(51.0311374540219, -114.160473741521)"
University,Calgary School District No. 19,Public School,University School,3035 Utah Drive NW,Calgary,AB,GRK-6,N,CBE Data,9237,Y,Y,N,N,2019/03/03,T2N3Z9,1398634,-114.133275613263,51.0698082000782,"(51.0698082000782, -114.133275613263)"
Glendale,Calgary School District No. 19,Public School,Glendale School,2415 Kelwood Drive SW,Calgary,AB,GRK-6,N,CBE Data,9143,Y,Y,N,N,2019/03/03,T3E3Z8,1382522,-114.14557999709,51.0324672305175,"(51.0324672305175, -114.14557999709)"
Twelve Mile Coulee,Calgary School District No. 19,Public School,Twelve Mile Coulee School,65 Tuscany Hills Road NW,Calgary,AB,GR5-9,N,CBE Data,1678,N,Y,Y,N,2019/03/03,T3L0C7,1545333,-114.2434801097,51.1228361674807,"(51.1228361674807, -114.2434801097)"
École du Nouveau-Monde,The Southern Francophone Education Region No. 4,Francophone,École du Nouveau-Monde,220 Scenic Acres Drive NW,Calgary,AB,Elementary,N,Provincial Data,2149,N,Y,N,N,2019/03/03,T3L0E7,2366228,-114.21512403192,51.1115960168004,"(51.1115960168004, -114.21512403192)"
St. Matthew,Calgary Roman Catholic Separate School District No. 1,Separate School,St. Matthew School,416 83 Ave SE,Calgary,AB,Elementary / Junior High,N,CSSD Data,8716,N,Y,Y,N,2019/03/03,T2H1N3,1382898,-114.058510118624,50.9786823671869,"(50.9786823671869, -114.058510118624)"
Kenneth D. Taylor,Calgary School District No. 19,Public School,Kenneth D. Taylor School,30 Evanscove Circle NW,Calgary,AB,GRK-4,N,CBE Data,2088,Y,Y,N,N,2019/03/03,T3P0A1,2371314,-114.117801387192,51.1650959707769,"(51.1650959707769, -114.117801387192)"
St. Alphonsus,Calgary Roman Catholic Separate School District No. 1,Separate School,St. Alphonsus Elementary Junior High School,928 Radnor Ave NE,Calgary,AB,Elementary / Junior High,N,CSSD Data,8706,N,Y,Y,N,2019/03/03,T2E5H5,1381398,-114.041414988792,51.0647335737061,"(51.0647335737061, -114.041414988792)"
Tuscany,Calgary School District No. 19,Public School,Tuscany School,990 Tuscany Drive NW,Calgary,AB,GRPRE-K-4,N,CBE Data,1335,Y,Y,N,N,2019/03/03,T3L2T4,1383513,-114.245430649263,51.1177870620901,"(51.1177870620901, -114.245430649263)"
Sir John A. Macdonald,Calgary School District No. 19,Public School,Sir John A Macdonald School,6600 4 Street NW,Calgary,AB,GR7-9,N,CBE Data,9652,N,N,Y,N,2019/03/03,T2K1C2,1383509,-114.070045666737,51.1114770162649,"(51.1114770162649, -114.070045666737)"
McKenzie Towne,Calgary School District No. 19,Public School,McKenzie Towne School,679 Prestwick Circle SE,Calgary,AB,GRK-4,N,CBE Data,1463,Y,Y,N,N,2019/03/03,T2Z0V3,1382260,-113.966717485543,50.9270487358853,"(50.9270487358853, -113.966717485543)"
McKenzie Lake,Calgary School District No. 19,Public School,McKenzie Lake School,16210 McKenzie Lake Way SE,Calgary,AB,GRPRE-K-4,N,CBE Data,9385,Y,Y,N,N,2019/03/03,T2Z1L7,1382257,-113.984997382531,50.9062179365854,"(50.9062179365854, -113.984997382531)"
Banff Trail,Calgary School District No. 19,Public School,Banff Trail School,3232 Cochrane Road NW,Calgary,AB,GRK-6,N,CBE Data,9202,Y,Y,N,N,2019/03/03,T2M4J3,1383034,-114.116758754404,51.0816394773265,"(51.0816394773265, -114.116758754404)"
Queen Elizabeth,Calgary School District No. 19,Public School,Queen Elizabeth School,402 18 Street NW,Calgary,AB,GRK-6,N,CBE Data,9227,Y,Y,N,N,2019/03/03,T2N2G5,1382925,-114.101961121474,51.0554584063751,"(51.0554584063751, -114.101961121474)"
Colonel Sanders (TLC),Calgary School District No. 19,Public School,Colonel Sanders School,226 Northmount Drive NW,Calgary,AB,GR1-4,N,CBE Data,1053,N,Y,N,N,2019/03/03,T2K3G5,1383139,-114.074770415337,51.0998137260725,"(51.0998137260725, -114.074770415337)"
St. Andrew,Calgary Roman Catholic Separate School District No. 1,Separate School,St. Andrew School,4331 41 Ave SW,Calgary,AB,Elementary,N,CSSD Data,8508,N,Y,N,N,2019/03/03,T3E1G2,1382283,-114.147724169443,51.0163628240918,"(51.0163628240918, -114.147724169443)"
Balmoral,Calgary School District No. 19,Public School,Balmoral School,220 16 Avenue NW,Calgary,AB,GR5-9,N,CBE Data,9601,N,Y,Y,N,2019/03/03,T2M0H4,1381132,-114.066480171847,51.0678818213644,"(51.0678818213644, -114.066480171847)"
St. Anne Academic Centre,Calgary Roman Catholic Separate School District No. 1,Separate School,St. Anne Academic Centre,1010 21 Ave SE,Calgary,AB,Elementary / Junior High / Senior High,N,CSSD Data,8906,N,Y,Y,Y,2019/03/03,T2G1N2,1377733,-114.038918082565,51.0351393071435,"(51.0351393071435, -114.038918082565)"
All Saints High,Calgary Roman Catholic Separate School District No. 1,Separate School,All Saints School,729 Legacy Village Road SE,Calgary,AB,Senior High,N,CSSD Data,2175,N,N,N,Y,2019/03/03,T2X4K9,2443114,-114.026756759755,50.8593038149473,"(50.8593038149473, -114.026756759755)"
Alternative High,Calgary School District No. 19,Public School,Alternative High School,5003 20 Street SW,Calgary,AB,GR9-12,N,CBE Data,9863,N,N,Y,Y,2019/03/03,T2T5A5,1382202,-114.109959974644,51.0096594597176,"(51.0096594597176, -114.109959974644)"
Dr. Gordon Townsend,Calgary School District No. 19,Public School,Dr. Gordon Townsend School,2888 Shaganappi Trail NW,Calgary,AB,SPECIALTY,N,CBE Data,9886,N,N,N,N,2019/03/03,T3B6A8,1380615,-114.148345569031,51.0744945208654,"(51.0744945208654, -114.148345569031)"
Canadian Montessori,The Canadian Montessori School Ltd.,Private School,Canadian Montessori School,1112 70 Avenue S.W.,Calgary,AB,Elementary,N,Provincial Data,1981,N,Y,N,N,2019/03/03,T2V0P6,1186607,-114.088262165573,50.9907447322797,"(50.9907447322797, -114.088262165573)"
,Calgary School District No. 19,Public School,W.H.Cushing Workplace School,,Calgary,AB,,N,CBE Data,9387,N,N,N,N,2019/03/03,T2P1M6,1005433,-114.064913205681,51.0468240300448,"(51.0468240300448, -114.064913205681)"
Akiva Academy,Congregation House of Jacob-Mikveh Israel,Private School,Akiva Academy,140 Haddon Road S.W.,Calgary,AB,Elementary/Junior High,N,Provincial Data,9914,N,Y,Y,N,2019/03/03,T2V2Y3,1000918,-114.077823550139,50.9732773789079,"(50.9732773789079, -114.077823550139)"
Chief Justice Milvain,Calgary School District No. 19,Public School,Chief Justice Milvain School,3428 42 Street NE,Calgary,AB,GRK-6,N,CBE Data,9361,Y,Y,N,N,2019/03/03,T1Y6A3,1382292,-113.972189983599,51.0836860450484,"(51.0836860450484, -113.972189983599)"
Cedarbrae,Calgary School District No. 19,Public School,Cedarbrae School,10631 Oakfield Drive SW,Calgary,AB,GRK-6,N,CBE Data,9338,Y,Y,N,N,2019/03/03,T2W2T3,1382270,-114.133184517937,50.9583987637107,"(50.9583987637107, -114.133184517937)"
Terrace Road,Calgary School District No. 19,Public School,Terrace Road School,2103 46 Street NW,Calgary,AB,GRPRE-K-6,N,CBE Data,9138,Y,Y,N,N,2019/03/03,T3B1B3,1376539,-114.157931740569,51.0745018784656,"(51.0745018784656, -114.157931740569)"
St. Sebastian,Calgary Roman Catholic Separate School District No. 1,Separate School,St. Sebastian Elementary School,65 Chaparral Dr SE,Calgary,AB,Elementary,N,CSSD Data,1339,N,Y,N,N,2019/03/03,T2X0E6,1541829,-114.029127034641,50.8848430577754,"(50.8848430577754, -114.029127034641)"
Calgary French & International,Calgary French & International School Society,Private School,Calgary French & International School,700 - 77 Street S.W.,Calgary,AB,Elementary/Junior High/Senior High,N,Provincial Data,796,N,Y,Y,Y,2019/03/03,T3H5R1,1381131,-114.197832206367,51.0678949290602,"(51.0678949290602, -114.197832206367)"
Jack James High,Calgary School District No. 19,Public School,Jack James High School,5105 8 Avenue SE,Calgary,AB,GR10-12,N,CBE Data,9856,N,N,N,Y,2019/03/03,T2A4M1,1382835,-113.96037092198,51.044568813029,"(51.044568813029, -113.96037092198)"
Glamorgan,Calgary School District No. 19,Public School,Glamorgan School,50 Grafton Drive SW,Calgary,AB,GRK-9,N,CBE Data,9121,Y,Y,Y,N,2019/03/03,T3E4W3,1000915,-114.145398287145,51.0153799440689,"(51.0153799440689, -114.145398287145)"
Rundle College Senior High,Rundle College Society,Private School,Rundle College Senior High School,7375 - 17 Avenue SW,Calgary,AB,Senior High,N,Provincial Data,9952,N,N,N,Y,2019/03/03,T3H3W5,1382816,-114.193922082318,51.036894107398,"(51.036894107398, -114.193922082318)"
West Dalhousie,Calgary School District No. 19,Public School,West Dalhousie School,6502 58 Street NW,Calgary,AB,GRK-6,N,CBE Data,9344,Y,Y,N,N,2019/03/03,T3A2C8,1383231,-114.169538882148,51.1111682021622,"(51.1111682021622, -114.169538882148)"
Master's College,Palliser Regional Division No. 26,Public School,Master's College,4414 Crowchild Trail SW,Calgary,AB,Junior High/Senior High,N,Provincial Data,1562,N,N,Y,Y,2019/03/03,T2T5J4,1382281,-114.11654760101,51.0153129626849,"(51.0153129626849, -114.11654760101)"
Notre-Dame de la Paix,The Southern Francophone Education Region No. 4,Francophone,Notre-Dame de la Paix,809 Willingdon Blvd SE,Calgary,AB,Elementary,N,Provincial Data,1378,N,Y,N,N,2019/03/03,T2J2B7,1382811,-114.043372602214,50.9509170453084,"(50.9509170453084, -114.043372602214)"
Robert Warren,Calgary School District No. 19,Public School,Robert Warren School,12424 Elbow Drive SW,Calgary,AB,GR6-9,N,CBE Data,9655,N,Y,Y,N,2019/03/03,T2W1H2,1382585,-114.084817014935,50.9425067221209,"(50.9425067221209, -114.084817014935)"
Wilma Hansen,Calgary School District No. 19,Public School,Wilma Hansen School,963 Queensland Drive SE,Calgary,AB,GR5-9,N,CBE Data,9685,N,Y,Y,N,2019/03/03,,1376198,-114.01887042651,50.9322872999641,"(50.9322872999641, -114.01887042651)"
Banbury Crossroads,Banbury Crossroads School,Private School,Banbury Crossroads School,B1 #201 2451 Dieppe Avenue S.W.,Calgary,AB,Elementary/Junior High/Senior High,N,Provincial Data,9935,N,Y,Y,Y,2019/03/03,,1379081,-114.119038751587,51.019286584222,"(51.019286584222, -114.119038751587)"
St. Philip,Calgary Roman Catholic Separate School District No. 1,Separate School,St. Philip School,13825 Parkside Dr SE,Calgary,AB,Elementary,N,CSSD Data,8724,N,Y,N,N,2019/03/03,T2J5A8,1541836,-114.038274586724,50.9278826158027,"(50.9278826158027, -114.038274586724)"
Discovering Choices - Bowness - Start Outreach,Calgary School District No. 19,Public School,Start Outreach,4110 79 Street NW,Calgary,AB,OUTREACH,N,CBE Data,1232,N,N,N,N,2019/03/03,T3B5C2,1417013,-114.201903235101,51.0894295268385,"(51.0894295268385, -114.201903235101)"
Pineridge,Calgary School District No. 19,Public School,Pineridge School,1927 61 Street NE,Calgary,AB,GRK-6,N,CBE Data,9360,Y,Y,N,N,2019/03/03,T1Y4W6,1601009,-113.945229289221,51.0703247965852,"(51.0703247965852, -113.945229289221)"
St. Thomas Aquinas,Calgary Roman Catholic Separate School District No. 1,Separate School,St. Thomas Aquinas School,4540 26 Ave SW,Calgary,AB,Elementary,N,CSSD Data,8527,N,Y,N,N,2019/03/03,T3E0R1,1382518,-114.151784895868,51.030987618437,"(51.030987618437, -114.151784895868)"
Taradale,Calgary School District No. 19,Public School,Taradale School,170 Taravista Drive NE,Calgary,AB,GRK-4,N,CBE Data,1450,Y,Y,N,N,2019/03/03,,1383515,-113.937755082685,51.1212530621008,"(51.1212530621008, -113.937755082685)"
